$GPGSV,2,1,07,02,45,120,,05,30,210,,12,60,045,,15,20,300,*79
$GPGSV,2,2,07,18,70,180,,24,15,090,,25,35,260,*47
$BDGSV,1,1,04,06,40,100,,09,25,220,,14,55,330,,19,65,010,*6E
$GNGGA,,,,,,0,00,25.5,,,,,,*64
$GNRMC,,V,,,,,,,,,,N*4D

$GPGSV,2,1,07,02,45,120,,05,30,210,,12,60,045,,15,20,300,*79
$GPGSV,2,2,07,18,70,180,,24,15,090,,25,35,260,*47
$BDGSV,1,1,04,06,40,100,,09,25,220,,14,55,330,,19,65,010,*6E
$GNGGA,,,,,,0,00,25.5,,,,,,*64
$GNRMC,,V,,,,,,,,,,N*4D

$GPGSV,2,1,07,02,45,120,,05,30,210,,12,60,045,,15,20,300,*79
$GPGSV,2,2,07,18,70,180,,24,15,090,,25,35,260,*47
$BDGSV,1,1,04,06,40,100,,09,25,220,,14,55,330,,19,65,010,*6E
$GNGGA,,,,,,0,00,25.5,,,,,,*64
$GNRMC,,V,,,,,,,,,,N*4D

$GPGSV,2,1,07,02,45,120,,05,30,210,,12,60,045,,15,20,300,*79
$GPGSV,2,2,07,18,70,180,,24,15,090,,25,35,260,*47
$BDGSV,1,1,04,06,40,100,,09,25,220,,14,55,330,,19,65,010,*6E
$GNGGA,,,,,,0,00,25.5,,,,,,*64
$GNRMC,,V,,,,,,,,,,N*4D

$GPGSV,2,1,07,02,45,120,18,05,30,210,,12,60,045,,15,20,300,*70
$GPGSV,2,2,07,18,70,180,,24,15,090,,25,35,260,*47
$BDGSV,1,1,04,06,40,100,,09,25,220,,14,55,330,,19,65,010,*6E
$GNGGA,,,,,,0,00,25.5,,,,,,*64
$GNRMC,,V,,,,,,,,,,N*4D

$GPGSV,2,1,07,02,45,120,18,05,30,210,,12,60,045,,15,20,300,*70
$GPGSV,2,2,07,18,70,180,,24,15,090,,25,35,260,*47
$BDGSV,1,1,04,06,40,100,,09,25,220,,14,55,330,,19,65,010,*6E
$GNGGA,,,,,,0,00,25.5,,,,,,*64
$GNRMC,,V,,,,,,,,,,N*4D

$GPGSV,2,1,07,02,45,120,18,05,30,210,,12,60,045,,15,20,300,*70
$GPGSV,2,2,07,18,70,180,,24,15,090,,25,35,260,*47
$BDGSV,1,1,04,06,40,100,,09,25,220,,14,55,330,,19,65,010,*6E
$GNGGA,,,,,,0,00,25.5,,,,,,*64
$GNRMC,,V,,,,,,,,,,N*4D

$GPGSV,2,1,07,02,45,120,18,05,30,210,,12,60,045,,15,20,300,*70
$GPGSV,2,2,07,18,70,180,,24,15,090,,25,35,260,*47
$BDGSV,1,1,04,06,40,100,16,09,25,220,,14,55,330,,19,65,010,*69
$GNGGA,,,,,,0,00,25.5,,,,,,*64
$GNRMC,,V,,,,,,,,,,N*4D

$GPGSV,2,1,07,02,45,120,18,05,30,210,21,12,60,045,,15,20,300,*73
$GPGSV,2,2,07,18,70,180,,24,15,090,,25,35,260,*47
$BDGSV,1,1,04,06,40,100,16,09,25,220,,14,55,330,,19,65,010,*69
$GNGGA,,,,,,0,00,25.5,,,,,,*64
$GNRMC,,V,,,,,,,,,,N*4D

$GPGSV,2,1,07,02,45,120,18,05,30,210,21,12,60,045,,15,20,300,*73
$GPGSV,2,2,07,18,70,180,,24,15,090,,25,35,260,*47
$BDGSV,1,1,04,06,40,100,16,09,25,220,,14,55,330,,19,65,010,*69
$GNGGA,,,,,,0,00,25.5,,,,,,*64
$GNRMC,,V,,,,,,,,,,N*4D

$GPGSV,2,1,07,02,45,120,18,05,30,210,21,12,60,045,,15,20,300,*73
$GPGSV,2,2,07,18,70,180,,24,15,090,,25,35,260,*47
$BDGSV,1,1,04,06,40,100,16,09,25,220,,14,55,330,,19,65,010,*69
$GNGGA,,,,,,0,00,25.5,,,,,,*64
$GNRMC,,V,,,,,,,,,,N*4D

$GPGSV,2,1,07,02,45,120,18,05,30,210,21,12,60,045,,15,20,300,*73
$GPGSV,2,2,07,18,70,180,,24,15,090,,25,35,260,*47
$BDGSV,1,1,04,06,40,100,16,09,25,220,,14,55,330,,19,65,010,*69
$GNGGA,,,,,,0,00,25.5,,,,,,*64
$GNRMC,,V,,,,,,,,,,N*4D

$GPGSV,2,1,07,02,45,120,18,05,30,210,21,12,60,045,24,15,20,300,*75
$GPGSV,2,2,07,18,70,180,,24,15,090,,25,35,260,*47
$BDGSV,1,1,04,06,40,100,16,09,25,220,,14,55,330,,19,65,010,*69
$GNGGA,,,,,,0,00,25.5,,,,,,*64
$GNRMC,,V,,,,,,,,,,N*4D

$GPGSV,2,1,07,02,45,120,18,05,30,210,21,12,60,045,24,15,20,300,*75
$GPGSV,2,2,07,18,70,180,,24,15,090,,25,35,260,*47
$BDGSV,1,1,04,06,40,100,16,09,25,220,,14,55,330,,19,65,010,*69
$GNGGA,,,,,,0,00,25.5,,,,,,*64
$GNRMC,,V,,,,,,,,,,N*4D

$GPGSV,2,1,07,02,45,120,18,05,30,210,21,12,60,045,24,15,20,300,*75
$GPGSV,2,2,07,18,70,180,,24,15,090,,25,35,260,*47
$BDGSV,1,1,04,06,40,100,16,09,25,220,18,14,55,330,,19,65,010,*60
$GNGGA,,,,,,0,00,25.5,,,,,,*64
$GNRMC,,V,,,,,,,,,,N*4D

$GPGSV,2,1,07,02,45,120,18,05,30,210,21,12,60,045,24,15,20,300,*75
$GPGSV,2,2,07,18,70,180,,24,15,090,,25,35,260,*47
$BDGSV,1,1,04,06,40,100,16,09,25,220,18,14,55,330,,19,65,010,*60
$GNGGA,,,,,,0,00,25.5,,,,,,*64
$GNRMC,,V,,,,,,,,,,N*4D

$GPGSV,2,1,07,02,45,120,18,05,30,210,21,12,60,045,24,15,20,300,27*70
$GPGSV,2,2,07,18,70,180,,24,15,090,,25,35,260,*47
$BDGSV,1,1,04,06,40,100,16,09,25,220,18,14,55,330,,19,65,010,*60
$GNGGA,,,,,,0,00,25.5,,,,,,*64
$GNRMC,,V,,,,,,,,,,N*4D

$GPGSV,2,1,07,02,45,120,18,05,30,210,21,12,60,045,24,15,20,300,27*70
$GPGSV,2,2,07,18,70,180,,24,15,090,,25,35,260,*47
$BDGSV,1,1,04,06,40,100,16,09,25,220,18,14,55,330,,19,65,010,*60
$GNGGA,,,,,,0,00,25.5,,,,,,*64
$GNRMC,,V,,,,,,,,,,N*4D

$GPGSV,2,1,07,02,45,120,18,05,30,210,21,12,60,045,24,15,20,300,27*70
$GPGSV,2,2,07,18,70,180,,24,15,090,,25,35,260,*47
$BDGSV,1,1,04,06,40,100,16,09,25,220,18,14,55,330,,19,65,010,*60
$GNGGA,,,,,,0,00,25.5,,,,,,*64
$GNRMC,,V,,,,,,,,,,N*4D

$GPGSV,2,1,07,02,45,120,18,05,30,210,21,12,60,045,24,15,20,300,27*70
$GPGSV,2,2,07,18,70,180,,24,15,090,,25,35,260,*47
$BDGSV,1,1,04,06,40,100,16,09,25,220,18,14,55,330,,19,65,010,*60
$GNGGA,,,,,,0,00,25.5,,,,,,*64
$GNRMC,,V,,,,,,,,,,N*4D

$GPGSV,3,1,09,02,45,120,24,05,30,210,29,12,60,045,34,15,20,300,39*76
$GPGSV,3,2,09,18,70,180,24,24,15,090,29,25,35,260,34,29,50,020,*7E
$GPGSV,3,3,09,31,10,150,*47
$BDGSV,2,1,06,06,40,100,22,09,25,220,26,14,55,330,30,19,65,010,34*6F
$BDGSV,2,2,06,21,30,170,22,22,12,250,*6C
$GNGGA,120000.000,3351.4000,S,15112.9000,E,1,08,1.2,25.3,M,22.1,M,,*6D
$GNRMC,120000.000,A,3351.4000,S,15112.9000,E,0.12,85.3,061026,,,A*6F

$GPGSV,3,1,09,02,45,120,24,05,30,210,29,12,60,045,34,15,20,300,39*76
$GPGSV,3,2,09,18,70,180,24,24,15,090,29,25,35,260,34,29,50,020,*7E
$GPGSV,3,3,09,31,10,150,*47
$BDGSV,2,1,06,06,40,100,22,09,25,220,26,14,55,330,30,19,65,010,34*6F
$BDGSV,2,2,06,21,30,170,22,22,12,250,*6C
$GNGGA,120001.000,3351.4000,S,15112.9000,E,1,08,1.2,25.3,M,22.1,M,,*6C
$GNRMC,120001.000,A,3351.4000,S,15112.9000,E,0.12,85.3,061026,,,A*6E

$GPGSV,3,1,09,02,45,120,24,05,30,210,29,12,60,045,34,15,20,300,39*76
$GPGSV,3,2,09,18,70,180,24,24,15,090,29,25,35,260,34,29,50,020,*7E
$GPGSV,3,3,09,31,10,150,*47
$BDGSV,2,1,06,06,40,100,22,09,25,220,26,14,55,330,30,19,65,010,34*6F
$BDGSV,2,2,06,21,30,170,22,22,12,250,*6C
$GNGGA,120002.000,3351.4000,S,15112.9000,E,1,08,1.2,25.3,M,22.1,M,,*6F
$GNRMC,120002.000,A,3351.4000,S,15112.9000,E,0.12,85.3,061026,,,A*6D

$GPGSV,3,1,09,02,45,120,24,05,30,210,29,12,60,045,34,15,20,300,39*76
$GPGSV,3,2,09,18,70,180,24,24,15,090,29,25,35,260,34,29,50,020,*7E
$GPGSV,3,3,09,31,10,150,*47
$BDGSV,2,1,06,06,40,100,22,09,25,220,26,14,55,330,30,19,65,010,34*6F
$BDGSV,2,2,06,21,30,170,22,22,12,250,*6C
$GNGGA,120003.000,3351.4000,S,15112.9000,E,1,08,1.2,25.3,M,22.1,M,,*6E
$GNRMC,120003.000,A,3351.4000,S,15112.9000,E,0.12,85.3,061026,,,A*6C

$GPGSV,3,1,09,02,45,120,24,05,30,210,29,12,60,045,34,15,20,300,39*76
$GPGSV,3,2,09,18,70,180,24,24,15,090,29,25,35,260,34,29,50,020,*7E
$GPGSV,3,3,09,31,10,150,*47
$BDGSV,2,1,06,06,40,100,22,09,25,220,26,14,55,330,30,19,65,010,34*6F
$BDGSV,2,2,06,21,30,170,22,22,12,250,*6C
$GNGGA,120004.000,3351.4000,S,15112.9000,E,1,08,1.2,25.3,M,22.1,M,,*69
$GNRMC,120004.000,A,3351.4000,S,15112.9000,E,0.12,85.3,061026,,,A*6B

$GPGSV,3,1,09,02,45,120,24,05,30,210,29,12,60,045,34,15,20,300,39*76
$GPGSV,3,2,09,18,70,180,24,24,15,090,29,25,35,260,34,29,50,020,*7E
$GPGSV,3,3,09,31,10,150,*47
$BDGSV,2,1,06,06,40,100,22,09,25,220,26,14,55,330,30,19,65,010,34*6F
$BDGSV,2,2,06,21,30,170,22,22,12,250,*6C
$GNGGA,120005.000,3351.4000,S,15112.9000,E,1,08,1.2,25.3,M,22.1,M,,*68
$GNRMC,120005.000,A,3351.4000,S,15112.9000,E,0.12,85.3,061026,,,A*6A

$GPGSV,3,1,09,02,45,120,24,05,30,210,29,12,60,045,34,15,20,300,39*76
$GPGSV,3,2,09,18,70,180,24,24,15,090,29,25,35,260,34,29,50,020,*7E
$GPGSV,3,3,09,31,10,150,*47
$BDGSV,2,1,06,06,40,100,22,09,25,220,26,14,55,330,30,19,65,010,34*6F
$BDGSV,2,2,06,21,30,170,22,22,12,250,*6C
$GNGGA,120006.000,3351.4000,S,15112.9000,E,1,08,1.2,25.3,M,22.1,M,,*6B
$GNRMC,120006.000,A,3351.4000,S,15112.9000,E,0.12,85.3,061026,,,A*69

$GPGSV,3,1,09,02,45,120,24,05,30,210,29,12,60,045,34,15,20,300,39*76
$GPGSV,3,2,09,18,70,180,24,24,15,090,29,25,35,260,34,29,50,020,*7E
$GPGSV,3,3,09,31,10,150,*47
$BDGSV,2,1,06,06,40,100,22,09,25,220,26,14,55,330,30,19,65,010,34*6F
$BDGSV,2,2,06,21,30,170,22,22,12,250,*6C
$GNGGA,120007.000,3351.4000,S,15112.9000,E,1,08,1.2,25.3,M,22.1,M,,*6A
$GNRMC,120007.000,A,3351.4000,S,15112.9000,E,0.12,85.3,061026,,,A*68

$GPGSV,3,1,09,02,45,120,24,05,30,210,29,12,60,045,34,15,20,300,39*76
$GPGSV,3,2,09,18,70,180,24,24,15,090,29,25,35,260,34,29,50,020,*7E
$GPGSV,3,3,09,31,10,150,*47
$BDGSV,2,1,06,06,40,100,22,09,25,220,26,14,55,330,30,19,65,010,34*6F
$BDGSV,2,2,06,21,30,170,22,22,12,250,*6C
$GNGGA,120008.000,3351.4000,S,15112.9000,E,1,08,1.2,25.3,M,22.1,M,,*65
$GNRMC,120008.000,A,3351.4000,S,15112.9000,E,0.12,85.3,061026,,,A*67

$GPGSV,3,1,09,02,45,120,24,05,30,210,29,12,60,045,34,15,20,300,39*76
$GPGSV,3,2,09,18,70,180,24,24,15,090,29,25,35,260,34,29,50,020,*7E
$GPGSV,3,3,09,31,10,150,*47
$BDGSV,2,1,06,06,40,100,22,09,25,220,26,14,55,330,30,19,65,010,34*6F
$BDGSV,2,2,06,21,30,170,22,22,12,250,*6C
$GNGGA,120009.000,3351.4000,S,15112.9000,E,1,08,1.2,25.3,M,22.1,M,,*64
$GNRMC,120009.000,A,3351.4000,S,15112.9000,E,0.12,85.3,061026,,,A*66

$GPGSV,3,1,09,02,45,120,24,05,30,210,29,12,60,045,34,15,20,300,39*76
$GPGSV,3,2,09,18,70,180,24,24,15,090,29,25,35,260,34,29,50,020,*7E
$GPGSV,3,3,09,31,10,150,*47
$BDGSV,2,1,06,06,40,100,22,09,25,220,26,14,55,330,30,19,65,010,34*6F
$BDGSV,2,2,06,21,30,170,22,22,12,250,*6C
$GNGGA,120010.000,3351.4000,S,15112.9000,E,1,08,1.2,25.3,M,22.1,M,,*6C
$GNRMC,120010.000,A,3351.4000,S,15112.9000,E,0.12,85.3,061026,,,A*6E

$GPGSV,3,1,09,02,45,120,24,05,30,210,29,12,60,045,34,15,20,300,39*76
$GPGSV,3,2,09,18,70,180,24,24,15,090,29,25,35,260,34,29,50,020,*7E
$GPGSV,3,3,09,31,10,150,*47
$BDGSV,2,1,06,06,40,100,22,09,25,220,26,14,55,330,30,19,65,010,34*6F
$BDGSV,2,2,06,21,30,170,22,22,12,250,*6C
$GNGGA,120011.000,3351.4000,S,15112.9000,E,1,08,1.2,25.3,M,22.1,M,,*6D
$GNRMC,120011.000,A,3351.4000,S,15112.9000,E,0.12,85.3,061026,,,A*6F

$GPGSV,3,1,09,02,45,120,24,05,30,210,29,12,60,045,34,15,20,300,39*76
$GPGSV,3,2,09,18,70,180,24,24,15,090,29,25,35,260,34,29,50,020,*7E
$GPGSV,3,3,09,31,10,150,*47
$BDGSV,2,1,06,06,40,100,22,09,25,220,26,14,55,330,30,19,65,010,34*6F
$BDGSV,2,2,06,21,30,170,22,22,12,250,*6C
$GNGGA,120012.000,3351.4000,S,15112.9000,E,1,08,1.2,25.3,M,22.1,M,,*6E
$GNRMC,120012.000,A,3351.4000,S,15112.9000,E,0.12,85.3,061026,,,A*6C

$GPGSV,3,1,09,02,45,120,24,05,30,210,29,12,60,045,34,15,20,300,39*76
$GPGSV,3,2,09,18,70,180,24,24,15,090,29,25,35,260,34,29,50,020,*7E
$GPGSV,3,3,09,31,10,150,*47
$BDGSV,2,1,06,06,40,100,22,09,25,220,26,14,55,330,30,19,65,010,34*6F
$BDGSV,2,2,06,21,30,170,22,22,12,250,*6C
$GNGGA,120013.000,3351.4000,S,15112.9000,E,1,08,1.2,25.3,M,22.1,M,,*6F
$GNRMC,120013.000,A,3351.4000,S,15112.9000,E,0.12,85.3,061026,,,A*6D

$GPGSV,3,1,09,02,45,120,24,05,30,210,29,12,60,045,34,15,20,300,39*76
$GPGSV,3,2,09,18,70,180,24,24,15,090,29,25,35,260,34,29,50,020,*7E
$GPGSV,3,3,09,31,10,150,*47
$BDGSV,2,1,06,06,40,100,22,09,25,220,26,14,55,330,30,19,65,010,34*6F
$BDGSV,2,2,06,21,30,170,22,22,12,250,*6C
$GNGGA,120014.000,3351.4000,S,15112.9000,E,1,08,1.2,25.3,M,22.1,M,,*68
$GNRMC,120014.000,A,3351.4000,S,15112.9000,E,0.12,85.3,061026,,,A*6A

$GPGSV,3,1,09,02,45,120,24,05,30,210,29,12,60,045,34,15,20,300,39*76
$GPGSV,3,2,09,18,70,180,24,24,15,090,29,25,35,260,34,29,50,020,*7E
$GPGSV,3,3,09,31,10,150,*47
$BDGSV,2,1,06,06,40,100,22,09,25,220,26,14,55,330,30,19,65,010,34*6F
$BDGSV,2,2,06,21,30,170,22,22,12,250,*6C
$GNGGA,120015.000,3351.4000,S,15112.9000,E,1,08,1.2,25.3,M,22.1,M,,*69
$GNRMC,120015.000,A,3351.4000,S,15112.9000,E,0.12,85.3,061026,,,A*6B

$GPGSV,3,1,09,02,45,120,24,05,30,210,29,12,60,045,34,15,20,300,39*76
$GPGSV,3,2,09,18,70,180,24,24,15,090,29,25,35,260,34,29,50,020,*7E
$GPGSV,3,3,09,31,10,150,*47
$BDGSV,2,1,06,06,40,100,22,09,25,220,26,14,55,330,30,19,65,010,34*6F
$BDGSV,2,2,06,21,30,170,22,22,12,250,*6C
$GNGGA,120016.000,3351.4000,S,15112.9000,E,1,08,1.2,25.3,M,22.1,M,,*6A
$GNRMC,120016.000,A,3351.4000,S,15112.9000,E,0.12,85.3,061026,,,A*68

$GPGSV,3,1,09,02,45,120,24,05,30,210,29,12,60,045,34,15,20,300,39*76
$GPGSV,3,2,09,18,70,180,24,24,15,090,29,25,35,260,34,29,50,020,*7E
$GPGSV,3,3,09,31,10,150,*47
$BDGSV,2,1,06,06,40,100,22,09,25,220,26,14,55,330,30,19,65,010,34*6F
$BDGSV,2,2,06,21,30,170,22,22,12,250,*6C
$GNGGA,120017.000,3351.4000,S,15112.9000,E,1,08,1.2,25.3,M,22.1,M,,*6B
$GNRMC,120017.000,A,3351.4000,S,15112.9000,E,0.12,85.3,061026,,,A*69

$GPGSV,3,1,09,02,45,120,24,05,30,210,29,12,60,045,34,15,20,300,39*76
$GPGSV,3,2,09,18,70,180,24,24,15,090,29,25,35,260,34,29,50,020,*7E
$GPGSV,3,3,09,31,10,150,*47
$BDGSV,2,1,06,06,40,100,22,09,25,220,26,14,55,330,30,19,65,010,34*6F
$BDGSV,2,2,06,21,30,170,22,22,12,250,*6C
$GNGGA,120018.000,3351.4000,S,15112.9000,E,1,08,1.2,25.3,M,22.1,M,,*64
$GNRMC,120018.000,A,3351.4000,S,15112.9000,E,0.12,85.3,061026,,,A*66

$GPGSV,3,1,09,02,45,120,24,05,30,210,29,12,60,045,34,15,20,300,39*76
$GPGSV,3,2,09,18,70,180,24,24,15,090,29,25,35,260,34,29,50,020,*7E
$GPGSV,3,3,09,31,10,150,*47
$BDGSV,2,1,06,06,40,100,22,09,25,220,26,14,55,330,30,19,65,010,34*6F
$BDGSV,2,2,06,21,30,170,22,22,12,250,*6C
$GNGGA,120019.000,3351.4000,S,15112.9000,E,1,08,1.2,25.3,M,22.1,M,,*65
$GNRMC,120019.000,A,3351.4000,S,15112.9000,E,0.12,85.3,061026,,,A*67

$GPGSV,3,1,09,02,45,120,24,05,30,210,29,12,60,045,34,15,20,300,39*76
$GPGSV,3,2,09,18,70,180,24,24,15,090,29,25,35,260,34,29,50,020,*7E
$GPGSV,3,3,09,31,10,150,*47
$BDGSV,2,1,06,06,40,100,22,09,25,220,26,14,55,330,30,19,65,010,34*6F
$BDGSV,2,2,06,21,30,170,22,22,12,250,*6C
$GNGGA,120020.000,3351.4000,S,15112.9000,E,1,08,1.2,25.3,M,22.1,M,,*6F
$GNRMC,120020.000,A,3351.4000,S,15112.9000,E,0.12,85.3,061026,,,A*6D

$GPGSV,3,1,09,02,45,120,24,05,30,210,29,12,60,045,34,15,20,300,39*76
$GPGSV,3,2,09,18,70,180,24,24,15,090,29,25,35,260,34,29,50,020,*7E
$GPGSV,3,3,09,31,10,150,*47
$BDGSV,2,1,06,06,40,100,22,09,25,220,26,14,55,330,30,19,65,010,34*6F
$BDGSV,2,2,06,21,30,170,22,22,12,250,*6C
$GNGGA,120021.000,3351.4000,S,15112.9000,E,1,08,1.2,25.3,M,22.1,M,,*6E
$GNRMC,120021.000,A,3351.4000,S,15112.9000,E,0.12,85.3,061026,,,A*6C

$GPGSV,3,1,09,02,45,120,24,05,30,210,29,12,60,045,34,15,20,300,39*76
$GPGSV,3,2,09,18,70,180,24,24,15,090,29,25,35,260,34,29,50,020,*7E
$GPGSV,3,3,09,31,10,150,*47
$BDGSV,2,1,06,06,40,100,22,09,25,220,26,14,55,330,30,19,65,010,34*6F
$BDGSV,2,2,06,21,30,170,22,22,12,250,*6C
$GNGGA,120022.000,3351.4000,S,15112.9000,E,1,08,1.2,25.3,M,22.1,M,,*6D
$GNRMC,120022.000,A,3351.4000,S,15112.9000,E,0.12,85.3,061026,,,A*6F

$GPGSV,3,1,09,02,45,120,24,05,30,210,29,12,60,045,34,15,20,300,39*76
$GPGSV,3,2,09,18,70,180,24,24,15,090,29,25,35,260,34,29,50,020,*7E
$GPGSV,3,3,09,31,10,150,*47
$BDGSV,2,1,06,06,40,100,22,09,25,220,26,14,55,330,30,19,65,010,34*6F
$BDGSV,2,2,06,21,30,170,22,22,12,250,*6C
$GNGGA,120023.000,3351.4000,S,15112.9000,E,1,08,1.2,25.3,M,22.1,M,,*6C
$GNRMC,120023.000,A,3351.4000,S,15112.9000,E,0.12,85.3,061026,,,A*6E

$GPGSV,3,1,09,02,45,120,24,05,30,210,29,12,60,045,34,15,20,300,39*76
$GPGSV,3,2,09,18,70,180,24,24,15,090,29,25,35,260,34,29,50,020,*7E
$GPGSV,3,3,09,31,10,150,*47
$BDGSV,2,1,06,06,40,100,22,09,25,220,26,14,55,330,30,19,65,010,34*6F
$BDGSV,2,2,06,21,30,170,22,22,12,250,*6C
$GNGGA,120024.000,3351.4000,S,15112.9000,E,1,08,1.2,25.3,M,22.1,M,,*6B
$GNRMC,120024.000,A,3351.4000,S,15112.9000,E,0.12,85.3,061026,,,A*69

$GPGSV,3,1,09,02,45,120,24,05,30,210,29,12,60,045,34,15,20,300,39*76
$GPGSV,3,2,09,18,70,180,24,24,15,090,29,25,35,260,34,29,50,020,*7E
$GPGSV,3,3,09,31,10,150,*47
$BDGSV,2,1,06,06,40,100,22,09,25,220,26,14,55,330,30,19,65,010,34*6F
$BDGSV,2,2,06,21,30,170,22,22,12,250,*6C
$GNGGA,120025.000,3351.4000,S,15112.9000,E,1,08,1.2,25.3,M,22.1,M,,*6A
$GNRMC,120025.000,A,3351.4000,S,15112.9000,E,0.12,85.3,061026,,,A*68

$GPGSV,3,1,09,02,45,120,24,05,30,210,29,12,60,045,34,15,20,300,39*76
$GPGSV,3,2,09,18,70,180,24,24,15,090,29,25,35,260,34,29,50,020,*7E
$GPGSV,3,3,09,31,10,150,*47
$BDGSV,2,1,06,06,40,100,22,09,25,220,26,14,55,330,30,19,65,010,34*6F
$BDGSV,2,2,06,21,30,170,22,22,12,250,*6C
$GNGGA,120026.000,3351.4000,S,15112.9000,E,1,08,1.2,25.3,M,22.1,M,,*69
$GNRMC,120026.000,A,3351.4000,S,15112.9000,E,0.12,85.3,061026,,,A*6B

$GPGSV,3,1,09,02,45,120,24,05,30,210,29,12,60,045,34,15,20,300,39*76
$GPGSV,3,2,09,18,70,180,24,24,15,090,29,25,35,260,34,29,50,020,*7E
$GPGSV,3,3,09,31,10,150,*47
$BDGSV,2,1,06,06,40,100,22,09,25,220,26,14,55,330,30,19,65,010,34*6F
$BDGSV,2,2,06,21,30,170,22,22,12,250,*6C
$GNGGA,120027.000,3351.4000,S,15112.9000,E,1,08,1.2,25.3,M,22.1,M,,*68
$GNRMC,120027.000,A,3351.4000,S,15112.9000,E,0.12,85.3,061026,,,A*6A

$GPGSV,3,1,09,02,45,120,24,05,30,210,29,12,60,045,34,15,20,300,39*76
$GPGSV,3,2,09,18,70,180,24,24,15,090,29,25,35,260,34,29,50,020,*7E
$GPGSV,3,3,09,31,10,150,*47
$BDGSV,2,1,06,06,40,100,22,09,25,220,26,14,55,330,30,19,65,010,34*6F
$BDGSV,2,2,06,21,30,170,22,22,12,250,*6C
$GNGGA,120028.000,3351.4000,S,15112.9000,E,1,08,1.2,25.3,M,22.1,M,,*67
$GNRMC,120028.000,A,3351.4000,S,15112.9000,E,0.12,85.3,061026,,,A*65

$GPGSV,3,1,09,02,45,120,24,05,30,210,29,12,60,045,34,15,20,300,39*76
$GPGSV,3,2,09,18,70,180,24,24,15,090,29,25,35,260,34,29,50,020,*7E
$GPGSV,3,3,09,31,10,150,*47
$BDGSV,2,1,06,06,40,100,22,09,25,220,26,14,55,330,30,19,65,010,34*6F
$BDGSV,2,2,06,21,30,170,22,22,12,250,*6C
$GNGGA,120029.000,3351.4000,S,15112.9000,E,1,08,1.2,25.3,M,22.1,M,,*66
$GNRMC,120029.000,A,3351.4000,S,15112.9000,E,0.12,85.3,061026,,,A*64

$GPGSV,3,1,09,02,45,120,24,05,30,210,29,12,60,045,34,15,20,300,39*76
$GPGSV,3,2,09,18,70,180,24,24,15,090,29,25,35,260,34,29,50,020,*7E
$GPGSV,3,3,09,31,10,150,*47
$BDGSV,2,1,06,06,40,100,22,09,25,220,26,14,55,330,30,19,65,010,34*6F
$BDGSV,2,2,06,21,30,170,22,22,12,250,*6C
$GNGGA,120030.000,3351.4000,S,15112.9000,E,1,08,1.2,25.3,M,22.1,M,,*6E
$GNRMC,120030.000,A,3351.4000,S,15112.9000,E,0.12,85.3,061026,,,A*6C

$GPGSV,3,1,09,02,45,120,24,05,30,210,29,12,60,045,34,15,20,300,39*76
$GPGSV,3,2,09,18,70,180,24,24,15,090,29,25,35,260,34,29,50,020,*7E
$GPGSV,3,3,09,31,10,150,*47
$BDGSV,2,1,06,06,40,100,22,09,25,220,26,14,55,330,30,19,65,010,34*6F
$BDGSV,2,2,06,21,30,170,22,22,12,250,*6C
$GNGGA,120031.000,3351.4000,S,15112.9000,E,1,08,1.2,25.3,M,22.1,M,,*6F
$GNRMC,120031.000,A,3351.4000,S,15112.9000,E,0.12,85.3,061026,,,A*6D

$GPGSV,3,1,09,02,45,120,24,05,30,210,29,12,60,045,34,15,20,300,39*76
$GPGSV,3,2,09,18,70,180,24,24,15,090,29,25,35,260,34,29,50,020,*7E
$GPGSV,3,3,09,31,10,150,*47
$BDGSV,2,1,06,06,40,100,22,09,25,220,26,14,55,330,30,19,65,010,34*6F
$BDGSV,2,2,06,21,30,170,22,22,12,250,*6C
$GNGGA,120032.000,3351.4000,S,15112.9000,E,1,08,1.2,25.3,M,22.1,M,,*6C
$GNRMC,120032.000,A,3351.4000,S,15112.9000,E,0.12,85.3,061026,,,A*6E

$GPGSV,3,1,09,02,45,120,24,05,30,210,29,12,60,045,34,15,20,300,39*76
$GPGSV,3,2,09,18,70,180,24,24,15,090,29,25,35,260,34,29,50,020,*7E
$GPGSV,3,3,09,31,10,150,*47
$BDGSV,2,1,06,06,40,100,22,09,25,220,26,14,55,330,30,19,65,010,34*6F
$BDGSV,2,2,06,21,30,170,22,22,12,250,*6C
$GNGGA,120033.000,3351.4000,S,15112.9000,E,1,08,1.2,25.3,M,22.1,M,,*6D
$GNRMC,120033.000,A,3351.4000,S,15112.9000,E,0.12,85.3,061026,,,A*6F

$GPGSV,3,1,09,02,45,120,24,05,30,210,29,12,60,045,34,15,20,300,39*76
$GPGSV,3,2,09,18,70,180,24,24,15,090,29,25,35,260,34,29,50,020,*7E
$GPGSV,3,3,09,31,10,150,*47
$BDGSV,2,1,06,06,40,100,22,09,25,220,26,14,55,330,30,19,65,010,34*6F
$BDGSV,2,2,06,21,30,170,22,22,12,250,*6C
$GNGGA,120034.000,3351.4000,S,15112.9000,E,1,08,1.2,25.3,M,22.1,M,,*6A
$GNRMC,120034.000,A,3351.4000,S,15112.9000,E,0.12,85.3,061026,,,A*68

$GPGSV,3,1,09,02,45,120,24,05,30,210,29,12,60,045,34,15,20,300,39*76
$GPGSV,3,2,09,18,70,180,24,24,15,090,29,25,35,260,34,29,50,020,*7E
$GPGSV,3,3,09,31,10,150,*47
$BDGSV,2,1,06,06,40,100,22,09,25,220,26,14,55,330,30,19,65,010,34*6F
$BDGSV,2,2,06,21,30,170,22,22,12,250,*6C
$GNGGA,120035.000,3351.4000,S,15112.9000,E,1,08,1.2,25.3,M,22.1,M,,*6B
$GNRMC,120035.000,A,3351.4000,S,15112.9000,E,0.12,85.3,061026,,,A*69

$GPGSV,3,1,09,02,45,120,24,05,30,210,29,12,60,045,34,15,20,300,39*76
$GPGSV,3,2,09,18,70,180,24,24,15,090,29,25,35,260,34,29,50,020,*7E
$GPGSV,3,3,09,31,10,150,*47
$BDGSV,2,1,06,06,40,100,22,09,25,220,26,14,55,330,30,19,65,010,34*6F
$BDGSV,2,2,06,21,30,170,22,22,12,250,*6C
$GNGGA,120036.000,3351.4000,S,15112.9000,E,1,08,1.2,25.3,M,22.1,M,,*68
$GNRMC,120036.000,A,3351.4000,S,15112.9000,E,0.12,85.3,061026,,,A*6A

$GPGSV,3,1,09,02,45,120,24,05,30,210,29,12,60,045,34,15,20,300,39*76
$GPGSV,3,2,09,18,70,180,24,24,15,090,29,25,35,260,34,29,50,020,*7E
$GPGSV,3,3,09,31,10,150,*47
$BDGSV,2,1,06,06,40,100,22,09,25,220,26,14,55,330,30,19,65,010,34*6F
$BDGSV,2,2,06,21,30,170,22,22,12,250,*6C
$GNGGA,120037.000,3351.4000,S,15112.9000,E,1,08,1.2,25.3,M,22.1,M,,*69
$GNRMC,120037.000,A,3351.4000,S,15112.9000,E,0.12,85.3,061026,,,A*6B

$GPGSV,3,1,09,02,45,120,24,05,30,210,29,12,60,045,34,15,20,300,39*76
$GPGSV,3,2,09,18,70,180,24,24,15,090,29,25,35,260,34,29,50,020,*7E
$GPGSV,3,3,09,31,10,150,*47
$BDGSV,2,1,06,06,40,100,22,09,25,220,26,14,55,330,30,19,65,010,34*6F
$BDGSV,2,2,06,21,30,170,22,22,12,250,*6C
$GNGGA,120038.000,3351.4000,S,15112.9000,E,1,08,1.2,25.3,M,22.1,M,,*66
$GNRMC,120038.000,A,3351.4000,S,15112.9000,E,0.12,85.3,061026,,,A*64

$GPGSV,3,1,09,02,45,120,24,05,30,210,29,12,60,045,34,15,20,300,39*76
$GPGSV,3,2,09,18,70,180,24,24,15,090,29,25,35,260,34,29,50,020,*7E
$GPGSV,3,3,09,31,10,150,*47
$BDGSV,2,1,06,06,40,100,22,09,25,220,26,14,55,330,30,19,65,010,34*6F
$BDGSV,2,2,06,21,30,170,22,22,12,250,*6C
$GNGGA,120039.000,3351.4000,S,15112.9000,E,1,08,1.2,25.3,M,22.1,M,,*67
$GNRMC,120039.000,A,3351.4000,S,15112.9000,E,0.12,85.3,061026,,,A*65
