$GPGSV,2,1,07,02,45,120,,05,30,210,,12,60,045,,15,20,300,*79
$GPGSV,2,2,07,18,70,180,,24,15,090,,25,35,260,*47
$BDGSV,1,1,04,06,40,100,,09,25,220,,14,55,330,,19,65,010,*6E
$GNGGA,,,,,,0,00,25.5,,,,,,*64
$GNRMC,,V,,,,,,,,,,N*4D

$GPGSV,2,1,07,02,45,120,,05,30,210,,12,60,045,,15,20,300,*79
$GPGSV,2,2,07,18,70,180,,24,15,090,,25,35,260,*47
$BDGSV,1,1,04,06,40,100,,09,25,220,,14,55,330,,19,65,010,*6E
$GNGGA,,,,,,0,00,25.5,,,,,,*64
$GNRMC,,V,,,,,,,,,,N*4D

$GPGSV,2,1,07,02,45,120,,05,30,210,,12,60,045,,15,20,300,*79
$GPGSV,2,2,07,18,70,180,,24,15,090,,25,35,260,*47
$BDGSV,1,1,04,06,40,100,,09,25,220,,14,55,330,,19,65,010,*6E
$GNGGA,,,,,,0,00,25.5,,,,,,*64
$GNRMC,,V,,,,,,,,,,N*4D

$GPGSV,2,1,07,02,45,120,,05,30,210,,12,60,045,,15,20,300,*79
$GPGSV,2,2,07,18,70,180,,24,15,090,,25,35,260,*47
$BDGSV,1,1,04,06,40,100,,09,25,220,,14,55,330,,19,65,010,*6E
$GNGGA,,,,,,0,00,25.5,,,,,,*64
$GNRMC,,V,,,,,,,,,,N*4D

$GPGSV,2,1,07,02,45,120,18,05,30,210,,12,60,045,,15,20,300,*70
$GPGSV,2,2,07,18,70,180,,24,15,090,,25,35,260,*47
$BDGSV,1,1,04,06,40,100,,09,25,220,,14,55,330,,19,65,010,*6E
$GNGGA,,,,,,0,00,25.5,,,,,,*64
$GNRMC,,V,,,,,,,,,,N*4D

$GPGSV,2,1,07,02,45,120,18,05,30,210,,12,60,045,,15,20,300,*70
$GPGSV,2,2,07,18,70,180,,24,15,090,,25,35,260,*47
$BDGSV,1,1,04,06,40,100,,09,25,220,,14,55,330,,19,65,010,*6E
$GNGGA,,,,,,0,00,25.5,,,,,,*64
$GNRMC,,V,,,,,,,,,,N*4D

$GPGSV,2,1,07,02,45,120,18,05,30,210,,12,60,045,,15,20,300,*70
$GPGSV,2,2,07,18,70,180,,24,15,090,,25,35,260,*47
$BDGSV,1,1,04,06,40,100,,09,25,220,,14,55,330,,19,65,010,*6E
$GNGGA,,,,,,0,00,25.5,,,,,,*64
$GNRMC,,V,,,,,,,,,,N*4D

$GPGSV,2,1,07,02,45,120,18,05,30,210,,12,60,045,,15,20,300,*70
$GPGSV,2,2,07,18,70,180,,24,15,090,,25,35,260,*47
$BDGSV,1,1,04,06,40,100,16,09,25,220,,14,55,330,,19,65,010,*69
$GNGGA,,,,,,0,00,25.5,,,,,,*64
$GNRMC,,V,,,,,,,,,,N*4D

$GPGSV,2,1,07,02,45,120,18,05,30,210,21,12,60,045,,15,20,300,*73
$GPGSV,2,2,07,18,70,180,,24,15,090,,25,35,260,*47
$BDGSV,1,1,04,06,40,100,16,09,25,220,,14,55,330,,19,65,010,*69
$GNGGA,,,,,,0,00,25.5,,,,,,*64
$GNRMC,,V,,,,,,,,,,N*4D

$GPGSV,2,1,07,02,45,120,18,05,30,210,21,12,60,045,,15,20,300,*73
$GPGSV,2,2,07,18,70,180,,24,15,090,,25,35,260,*47
$BDGSV,1,1,04,06,40,100,16,09,25,220,,14,55,330,,19,65,010,*69
$GNGGA,,,,,,0,00,25.5,,,,,,*64
$GNRMC,,V,,,,,,,,,,N*4D

$GPGSV,2,1,07,02,45,120,18,05,30,210,21,12,60,045,,15,20,300,*73
$GPGSV,2,2,07,18,70,180,,24,15,090,,25,35,260,*47
$BDGSV,1,1,04,06,40,100,16,09,25,220,,14,55,330,,19,65,010,*69
$GNGGA,,,,,,0,00,25.5,,,,,,*64
$GNRMC,,V,,,,,,,,,,N*4D

$GPGSV,2,1,07,02,45,120,18,05,30,210,21,12,60,045,,15,20,300,*73
$GPGSV,2,2,07,18,70,180,,24,15,090,,25,35,260,*47
$BDGSV,1,1,04,06,40,100,16,09,25,220,,14,55,330,,19,65,010,*69
$GNGGA,,,,,,0,00,25.5,,,,,,*64
$GNRMC,,V,,,,,,,,,,N*4D

$GPGSV,2,1,07,02,45,120,18,05,30,210,21,12,60,045,24,15,20,300,*75
$GPGSV,2,2,07,18,70,180,,24,15,090,,25,35,260,*47
$BDGSV,1,1,04,06,40,100,16,09,25,220,,14,55,330,,19,65,010,*69
$GNGGA,,,,,,0,00,25.5,,,,,,*64
$GNRMC,,V,,,,,,,,,,N*4D

$GPGSV,2,1,07,02,45,120,18,05,30,210,21,12,60,045,24,15,20,300,*75
$GPGSV,2,2,07,18,70,180,,24,15,090,,25,35,260,*47
$BDGSV,1,1,04,06,40,100,16,09,25,220,,14,55,330,,19,65,010,*69
$GNGGA,,,,,,0,00,25.5,,,,,,*64
$GNRMC,,V,,,,,,,,,,N*4D

$GPGSV,2,1,07,02,45,120,18,05,30,210,21,12,60,045,24,15,20,300,*75
$GPGSV,2,2,07,18,70,180,,24,15,090,,25,35,260,*47
$BDGSV,1,1,04,06,40,100,16,09,25,220,18,14,55,330,,19,65,010,*60
$GNGGA,,,,,,0,00,25.5,,,,,,*64
$GNRMC,,V,,,,,,,,,,N*4D

$GPGSV,3,1,09,02,45,120,24,05,30,210,29,12,60,045,34,15,20,300,39*76
$GPGSV,3,2,09,18,70,180,24,24,15,090,29,25,35,260,34,29,50,020,*7E
$GPGSV,3,3,09,31,10,150,*47
$BDGSV,2,1,06,06,40,100,22,09,25,220,26,14,55,330,30,19,65,010,34*6F
$BDGSV,2,2,06,21,30,170,22,22,12,250,*6C
$GNGGA,120000.000,3351.4000,S,15112.9000,E,1,08,1.2,25.3,M,22.1,M,,*6D
$GNRMC,120000.000,A,3351.4000,S,15112.9000,E,19.44,0.0,061026,,,A*6A

$GPGSV,3,1,09,02,45,120,24,05,30,210,29,12,60,045,34,15,20,300,39*76
$GPGSV,3,2,09,18,70,180,24,24,15,090,29,25,35,260,34,29,50,020,*7E
$GPGSV,3,3,09,31,10,150,*47
$BDGSV,2,1,06,06,40,100,22,09,25,220,26,14,55,330,30,19,65,010,34*6F
$BDGSV,2,2,06,21,30,170,22,22,12,250,*6C
$GNGGA,120001.000,3351.3946,S,15112.9000,E,1,08,1.2,25.3,M,22.1,M,,*60
$GNRMC,120001.000,A,3351.3946,S,15112.9000,E,19.44,0.0,061026,,,A*67

$GPGSV,3,1,09,02,45,120,24,05,30,210,29,12,60,045,34,15,20,300,39*76
$GPGSV,3,2,09,18,70,180,24,24,15,090,29,25,35,260,34,29,50,020,*7E
$GPGSV,3,3,09,31,10,150,*47
$BDGSV,2,1,06,06,40,100,22,09,25,220,26,14,55,330,30,19,65,010,34*6F
$BDGSV,2,2,06,21,30,170,22,22,12,250,*6C
$GNGGA,120002.000,3351.3892,S,15112.9000,E,1,08,1.2,25.3,M,22.1,M,,*6B
$GNRMC,120002.000,A,3351.3892,S,15112.9000,E,19.44,0.0,061026,,,A*6C

$GPGSV,3,1,09,02,45,120,24,05,30,210,29,12,60,045,34,15,20,300,39*76
$GPGSV,3,2,09,18,70,180,24,24,15,090,29,25,35,260,34,29,50,020,*7E
$GPGSV,3,3,09,31,10,150,*47
$BDGSV,2,1,06,06,40,100,22,09,25,220,26,14,55,330,30,19,65,010,34*6F
$BDGSV,2,2,06,21,30,170,22,22,12,250,*6C
$GNGGA,120003.000,3351.3838,S,15112.9000,E,1,08,1.2,25.3,M,22.1,M,,*6A
$GNRMC,120003.000,A,3351.3838,S,15112.9000,E,19.44,0.0,061026,,,A*6D

$GPGSV,3,1,09,02,45,120,24,05,30,210,29,12,60,045,34,15,20,300,39*76
$GPGSV,3,2,09,18,70,180,24,24,15,090,29,25,35,260,34,29,50,020,*7E
$GPGSV,3,3,09,31,10,150,*47
$BDGSV,2,1,06,06,40,100,22,09,25,220,26,14,55,330,30,19,65,010,34*6F
$BDGSV,2,2,06,21,30,170,22,22,12,250,*6C
$GNGGA,120004.000,3351.3784,S,15112.9000,E,1,08,1.2,25.3,M,22.1,M,,*65
$GNRMC,120004.000,A,3351.3784,S,15112.9000,E,19.44,0.0,061026,,,A*62

$GPGSV,3,1,09,02,45,120,24,05,30,210,29,12,60,045,34,15,20,300,39*76
$GPGSV,3,2,09,18,70,180,24,24,15,090,29,25,35,260,34,29,50,020,*7E
$GPGSV,3,3,09,31,10,150,*47
$BDGSV,2,1,06,06,40,100,22,09,25,220,26,14,55,330,30,19,65,010,34*6F
$BDGSV,2,2,06,21,30,170,22,22,12,250,*6C
$GNGGA,120005.000,3351.3730,S,15112.9000,E,1,08,1.2,25.3,M,22.1,M,,*6B
$GNRMC,120005.000,A,3351.3730,S,15112.9000,E,19.44,0.0,061026,,,A*6C

$GPGSV,3,1,09,02,45,120,24,05,30,210,29,12,60,045,34,15,20,300,39*76
$GPGSV,3,2,09,18,70,180,24,24,15,090,29,25,35,260,34,29,50,020,*7E
$GPGSV,3,3,09,31,10,150,*47
$BDGSV,2,1,06,06,40,100,22,09,25,220,26,14,55,330,30,19,65,010,34*6F
$BDGSV,2,2,06,21,30,170,22,22,12,250,*6C
$GNGGA,120006.000,3351.3676,S,15112.9000,E,1,08,1.2,25.3,M,22.1,M,,*6B
$GNRMC,120006.000,A,3351.3676,S,15112.9000,E,19.44,0.0,061026,,,A*6C

$GPGSV,3,1,09,02,45,120,24,05,30,210,29,12,60,045,34,15,20,300,39*76
$GPGSV,3,2,09,18,70,180,24,24,15,090,29,25,35,260,34,29,50,020,*7E
$GPGSV,3,3,09,31,10,150,*47
$BDGSV,2,1,06,06,40,100,22,09,25,220,26,14,55,330,30,19,65,010,34*6F
$BDGSV,2,2,06,21,30,170,22,22,12,250,*6C
$GNGGA,120007.000,3351.3622,S,15112.9000,E,1,08,1.2,25.3,M,22.1,M,,*6B
$GNRMC,120007.000,A,3351.3622,S,15112.9000,E,19.44,0.0,061026,,,A*6C

$GPGSV,3,1,09,02,45,120,24,05,30,210,29,12,60,045,34,15,20,300,39*76
$GPGSV,3,2,09,18,70,180,24,24,15,090,29,25,35,260,34,29,50,020,*7E
$GPGSV,3,3,09,31,10,150,*47
$BDGSV,2,1,06,06,40,100,22,09,25,220,26,14,55,330,30,19,65,010,34*6F
$BDGSV,2,2,06,21,30,170,22,22,12,250,*6C
$GNGGA,120008.000,3351.3568,S,15112.9000,E,1,08,1.2,25.3,M,22.1,M,,*69
$GNRMC,120008.000,A,3351.3568,S,15112.9000,E,19.44,0.0,061026,,,A*6E

$GPGSV,3,1,09,02,45,120,24,05,30,210,29,12,60,045,34,15,20,300,39*76
$GPGSV,3,2,09,18,70,180,24,24,15,090,29,25,35,260,34,29,50,020,*7E
$GPGSV,3,3,09,31,10,150,*47
$BDGSV,2,1,06,06,40,100,22,09,25,220,26,14,55,330,30,19,65,010,34*6F
$BDGSV,2,2,06,21,30,170,22,22,12,250,*6C
$GNGGA,120009.000,3351.3514,S,15112.9000,E,1,08,1.2,25.3,M,22.1,M,,*63
$GNRMC,120009.000,A,3351.3514,S,15112.9000,E,19.44,0.0,061026,,,A*64

$GPGSV,3,1,09,02,45,120,24,05,30,210,29,12,60,045,34,15,20,300,39*76
$GPGSV,3,2,09,18,70,180,24,24,15,090,29,25,35,260,34,29,50,020,*7E
$GPGSV,3,3,09,31,10,150,*47
$BDGSV,2,1,06,06,40,100,22,09,25,220,26,14,55,330,30,19,65,010,34*6F
$BDGSV,2,2,06,21,30,170,22,22,12,250,*6C
$GNGGA,120010.000,3351.3460,S,15112.9000,E,1,08,1.2,25.3,M,22.1,M,,*69
$GNRMC,120010.000,A,3351.3460,S,15112.9000,E,19.44,0.0,061026,,,A*6E

$GPGSV,3,1,09,02,45,120,24,05,30,210,29,12,60,045,34,15,20,300,39*76
$GPGSV,3,2,09,18,70,180,24,24,15,090,29,25,35,260,34,29,50,020,*7E
$GPGSV,3,3,09,31,10,150,*47
$BDGSV,2,1,06,06,40,100,22,09,25,220,26,14,55,330,30,19,65,010,34*6F
$BDGSV,2,2,06,21,30,170,22,22,12,250,*6C
$GNGGA,120011.000,3351.3406,S,15112.9000,E,1,08,1.2,25.3,M,22.1,M,,*68
$GNRMC,120011.000,A,3351.3406,S,15112.9000,E,19.44,0.0,061026,,,A*6F

$GPGSV,3,1,09,02,45,120,24,05,30,210,29,12,60,045,34,15,20,300,39*76
$GPGSV,3,2,09,18,70,180,24,24,15,090,29,25,35,260,34,29,50,020,*7E
$GPGSV,3,3,09,31,10,150,*47
$BDGSV,2,1,06,06,40,100,22,09,25,220,26,14,55,330,30,19,65,010,34*6F
$BDGSV,2,2,06,21,30,170,22,22,12,250,*6C
$GNGGA,120012.000,3351.3352,S,15112.9000,E,1,08,1.2,25.3,M,22.1,M,,*6D
$GNRMC,120012.000,A,3351.3352,S,15112.9000,E,19.44,0.0,061026,,,A*6A

$GPGSV,3,1,09,02,45,120,24,05,30,210,29,12,60,045,34,15,20,300,39*76
$GPGSV,3,2,09,18,70,180,24,24,15,090,29,25,35,260,34,29,50,020,*7E
$GPGSV,3,3,09,31,10,150,*47
$BDGSV,2,1,06,06,40,100,22,09,25,220,26,14,55,330,30,19,65,010,34*6F
$BDGSV,2,2,06,21,30,170,22,22,12,250,*6C
$GNGGA,120013.000,3351.3298,S,15112.9000,E,1,08,1.2,25.3,M,22.1,M,,*6B
$GNRMC,120013.000,A,3351.3298,S,15112.9000,E,19.44,0.0,061026,,,A*6C

$GPGSV,3,1,09,02,45,120,24,05,30,210,29,12,60,045,34,15,20,300,39*76
$GPGSV,3,2,09,18,70,180,24,24,15,090,29,25,35,260,34,29,50,020,*7E
$GPGSV,3,3,09,31,10,150,*47
$BDGSV,2,1,06,06,40,100,22,09,25,220,26,14,55,330,30,19,65,010,34*6F
$BDGSV,2,2,06,21,30,170,22,22,12,250,*6C
$GNGGA,120014.000,3351.3244,S,15112.9000,E,1,08,1.2,25.3,M,22.1,M,,*6D
$GNRMC,120014.000,A,3351.3244,S,15112.9000,E,19.44,0.0,061026,,,A*6A

$GPGSV,3,1,09,02,45,120,24,05,30,210,29,12,60,045,34,15,20,300,39*76
$GPGSV,3,2,09,18,70,180,24,24,15,090,29,25,35,260,34,29,50,020,*7E
$GPGSV,3,3,09,31,10,150,*47
$BDGSV,2,1,06,06,40,100,22,09,25,220,26,14,55,330,30,19,65,010,34*6F
$BDGSV,2,2,06,21,30,170,22,22,12,250,*6C
$GNGGA,120015.000,3351.3190,S,15112.9000,E,1,08,1.2,25.3,M,22.1,M,,*66
$GNRMC,120015.000,A,3351.3190,S,15112.9000,E,19.44,0.0,061026,,,A*61

$GPGSV,3,1,09,02,45,120,24,05,30,210,29,12,60,045,34,15,20,300,39*76
$GPGSV,3,2,09,18,70,180,24,24,15,090,29,25,35,260,34,29,50,020,*7E
$GPGSV,3,3,09,31,10,150,*47
$BDGSV,2,1,06,06,40,100,22,09,25,220,26,14,55,330,30,19,65,010,34*6F
$BDGSV,2,2,06,21,30,170,22,22,12,250,*6C
$GNGGA,120016.000,3351.3136,S,15112.9000,E,1,08,1.2,25.3,M,22.1,M,,*69
$GNRMC,120016.000,A,3351.3136,S,15112.9000,E,19.44,0.0,061026,,,A*6E

$GPGSV,3,1,09,02,45,120,24,05,30,210,29,12,60,045,34,15,20,300,39*76
$GPGSV,3,2,09,18,70,180,24,24,15,090,29,25,35,260,34,29,50,020,*7E
$GPGSV,3,3,09,31,10,150,*47
$BDGSV,2,1,06,06,40,100,22,09,25,220,26,14,55,330,30,19,65,010,34*6F
$BDGSV,2,2,06,21,30,170,22,22,12,250,*6C
$GNGGA,120017.000,3351.3082,S,15112.9000,E,1,08,1.2,25.3,M,22.1,M,,*66
$GNRMC,120017.000,A,3351.3082,S,15112.9000,E,19.44,0.0,061026,,,A*61

$GPGSV,3,1,09,02,45,120,24,05,30,210,29,12,60,045,34,15,20,300,39*76
$GPGSV,3,2,09,18,70,180,24,24,15,090,29,25,35,260,34,29,50,020,*7E
$GPGSV,3,3,09,31,10,150,*47
$BDGSV,2,1,06,06,40,100,22,09,25,220,26,14,55,330,30,19,65,010,34*6F
$BDGSV,2,2,06,21,30,170,22,22,12,250,*6C
$GNGGA,120018.000,3351.3028,S,15112.9000,E,1,08,1.2,25.3,M,22.1,M,,*69
$GNRMC,120018.000,A,3351.3028,S,15112.9000,E,19.44,0.0,061026,,,A*6E

$GPGSV,3,1,09,02,45,120,24,05,30,210,29,12,60,045,34,15,20,300,39*76
$GPGSV,3,2,09,18,70,180,24,24,15,090,29,25,35,260,34,29,50,020,*7E
$GPGSV,3,3,09,31,10,150,*47
$BDGSV,2,1,06,06,40,100,22,09,25,220,26,14,55,330,30,19,65,010,34*6F
$BDGSV,2,2,06,21,30,170,22,22,12,250,*6C
$GNGGA,120019.000,3351.2974,S,15112.9000,E,1,08,1.2,25.3,M,22.1,M,,*69
$GNRMC,120019.000,A,3351.2974,S,15112.9000,E,19.44,0.0,061026,,,A*6E

$GPGSV,3,1,09,02,45,120,24,05,30,210,29,12,60,045,34,15,20,300,39*76
$GPGSV,3,2,09,18,70,180,24,24,15,090,29,25,35,260,34,29,50,020,*7E
$GPGSV,3,3,09,31,10,150,*47
$BDGSV,2,1,06,06,40,100,22,09,25,220,26,14,55,330,30,19,65,010,34*6F
$BDGSV,2,2,06,21,30,170,22,22,12,250,*6C
$GNGGA,120020.000,3351.2920,S,15112.9000,E,1,08,1.2,25.3,M,22.1,M,,*62
$GNRMC,120020.000,A,3351.2920,S,15112.9000,E,19.44,0.0,061026,,,A*65

$GPGSV,3,1,09,02,45,120,24,05,30,210,29,12,60,045,34,15,20,300,39*76
$GPGSV,3,2,09,18,70,180,24,24,15,090,29,25,35,260,34,29,50,020,*7E
$GPGSV,3,3,09,31,10,150,*47
$BDGSV,2,1,06,06,40,100,22,09,25,220,26,14,55,330,30,19,65,010,34*6F
$BDGSV,2,2,06,21,30,170,22,22,12,250,*6C
$GNGGA,120021.000,3351.2866,S,15112.9000,E,1,08,1.2,25.3,M,22.1,M,,*60
$GNRMC,120021.000,A,3351.2866,S,15112.9000,E,19.44,0.0,061026,,,A*67

$GPGSV,3,1,09,02,45,120,24,05,30,210,29,12,60,045,34,15,20,300,39*76
$GPGSV,3,2,09,18,70,180,24,24,15,090,29,25,35,260,34,29,50,020,*7E
$GPGSV,3,3,09,31,10,150,*47
$BDGSV,2,1,06,06,40,100,22,09,25,220,26,14,55,330,30,19,65,010,34*6F
$BDGSV,2,2,06,21,30,170,22,22,12,250,*6C
$GNGGA,120022.000,3351.2812,S,15112.9000,E,1,08,1.2,25.3,M,22.1,M,,*60
$GNRMC,120022.000,A,3351.2812,S,15112.9000,E,19.44,0.0,061026,,,A*67

$GPGSV,3,1,09,02,45,120,24,05,30,210,29,12,60,045,34,15,20,300,39*76
$GPGSV,3,2,09,18,70,180,24,24,15,090,29,25,35,260,34,29,50,020,*7E
$GPGSV,3,3,09,31,10,150,*47
$BDGSV,2,1,06,06,40,100,22,09,25,220,26,14,55,330,30,19,65,010,34*6F
$BDGSV,2,2,06,21,30,170,22,22,12,250,*6C
$GNGGA,120023.000,3351.2758,S,15112.9000,E,1,08,1.2,25.3,M,22.1,M,,*60
$GNRMC,120023.000,A,3351.2758,S,15112.9000,E,19.44,0.0,061026,,,A*67

$GPGSV,3,1,09,02,45,120,24,05,30,210,29,12,60,045,34,15,20,300,39*76
$GPGSV,3,2,09,18,70,180,24,24,15,090,29,25,35,260,34,29,50,020,*7E
$GPGSV,3,3,09,31,10,150,*47
$BDGSV,2,1,06,06,40,100,22,09,25,220,26,14,55,330,30,19,65,010,34*6F
$BDGSV,2,2,06,21,30,170,22,22,12,250,*6C
$GNGGA,120024.000,3351.2704,S,15112.9000,E,1,08,1.2,25.3,M,22.1,M,,*6E
$GNRMC,120024.000,A,3351.2704,S,15112.9000,E,19.44,0.0,061026,,,A*69

$GPGSV,3,1,09,02,45,120,24,05,30,210,29,12,60,045,34,15,20,300,39*76
$GPGSV,3,2,09,18,70,180,24,24,15,090,29,25,35,260,34,29,50,020,*7E
$GPGSV,3,3,09,31,10,150,*47
$BDGSV,2,1,06,06,40,100,22,09,25,220,26,14,55,330,30,19,65,010,34*6F
$BDGSV,2,2,06,21,30,170,22,22,12,250,*6C
$GNGGA,120025.000,3351.2650,S,15112.9000,E,1,08,1.2,25.3,M,22.1,M,,*6F
$GNRMC,120025.000,A,3351.2650,S,15112.9000,E,19.44,0.0,061026,,,A*68

$GPGSV,3,1,09,02,45,120,24,05,30,210,29,12,60,045,34,15,20,300,39*76
$GPGSV,3,2,09,18,70,180,24,24,15,090,29,25,35,260,34,29,50,020,*7E
$GPGSV,3,3,09,31,10,150,*47
$BDGSV,2,1,06,06,40,100,22,09,25,220,26,14,55,330,30,19,65,010,34*6F
$BDGSV,2,2,06,21,30,170,22,22,12,250,*6C
$GNGGA,120026.000,3351.2596,S,15112.9000,E,1,08,1.2,25.3,M,22.1,M,,*65
$GNRMC,120026.000,A,3351.2596,S,15112.9000,E,19.44,0.0,061026,,,A*62

$GPGSV,3,1,09,02,45,120,24,05,30,210,29,12,60,045,34,15,20,300,39*76
$GPGSV,3,2,09,18,70,180,24,24,15,090,29,25,35,260,34,29,50,020,*7E
$GPGSV,3,3,09,31,10,150,*47
$BDGSV,2,1,06,06,40,100,22,09,25,220,26,14,55,330,30,19,65,010,34*6F
$BDGSV,2,2,06,21,30,170,22,22,12,250,*6C
$GNGGA,120027.000,3351.2542,S,15112.9000,E,1,08,1.2,25.3,M,22.1,M,,*6D
$GNRMC,120027.000,A,3351.2542,S,15112.9000,E,19.44,0.0,061026,,,A*6A

$GPGSV,3,1,09,02,45,120,24,05,30,210,29,12,60,045,34,15,20,300,39*76
$GPGSV,3,2,09,18,70,180,24,24,15,090,29,25,35,260,34,29,50,020,*7E
$GPGSV,3,3,09,31,10,150,*47
$BDGSV,2,1,06,06,40,100,22,09,25,220,26,14,55,330,30,19,65,010,34*6F
$BDGSV,2,2,06,21,30,170,22,22,12,250,*6C
$GNGGA,120028.000,3351.2488,S,15112.9000,E,1,08,1.2,25.3,M,22.1,M,,*65
$GNRMC,120028.000,A,3351.2488,S,15112.9000,E,19.44,0.0,061026,,,A*62

$GPGSV,3,1,09,02,45,120,24,05,30,210,29,12,60,045,34,15,20,300,39*76
$GPGSV,3,2,09,18,70,180,24,24,15,090,29,25,35,260,34,29,50,020,*7E
$GPGSV,3,3,09,31,10,150,*47
$BDGSV,2,1,06,06,40,100,22,09,25,220,26,14,55,330,30,19,65,010,34*6F
$BDGSV,2,2,06,21,30,170,22,22,12,250,*6C
$GNGGA,120029.000,3351.2434,S,15112.9000,E,1,08,1.2,25.3,M,22.1,M,,*63
$GNRMC,120029.000,A,3351.2434,S,15112.9000,E,19.44,0.0,061026,,,A*64

$GPGSV,3,1,09,02,45,120,24,05,30,210,29,12,60,045,34,15,20,300,39*76
$GPGSV,3,2,09,18,70,180,24,24,15,090,29,25,35,260,34,29,50,020,*7E
$GPGSV,3,3,09,31,10,150,*47
$BDGSV,2,1,06,06,40,100,22,09,25,220,26,14,55,330,30,19,65,010,34*6F
$BDGSV,2,2,06,21,30,170,22,22,12,250,*6C
$GNGGA,120030.000,3351.2380,S,15112.9000,E,1,08,1.2,25.3,M,22.1,M,,*63
$GNRMC,120030.000,A,3351.2380,S,15112.9000,E,19.44,0.0,061026,,,A*64

$GPGSV,3,1,09,02,45,120,24,05,30,210,29,12,60,045,34,15,20,300,39*76
$GPGSV,3,2,09,18,70,180,24,24,15,090,29,25,35,260,34,29,50,020,*7E
$GPGSV,3,3,09,31,10,150,*47
$BDGSV,2,1,06,06,40,100,22,09,25,220,26,14,55,330,30,19,65,010,34*6F
$BDGSV,2,2,06,21,30,170,22,22,12,250,*6C
$GNGGA,120031.000,3351.2326,S,15112.9000,E,1,08,1.2,25.3,M,22.1,M,,*6E
$GNRMC,120031.000,A,3351.2326,S,15112.9000,E,19.44,0.0,061026,,,A*69

$GPGSV,3,1,09,02,45,120,24,05,30,210,29,12,60,045,34,15,20,300,39*76
$GPGSV,3,2,09,18,70,180,24,24,15,090,29,25,35,260,34,29,50,020,*7E
$GPGSV,3,3,09,31,10,150,*47
$BDGSV,2,1,06,06,40,100,22,09,25,220,26,14,55,330,30,19,65,010,34*6F
$BDGSV,2,2,06,21,30,170,22,22,12,250,*6C
$GNGGA,120032.000,3351.2272,S,15112.9000,E,1,08,1.2,25.3,M,22.1,M,,*6D
$GNRMC,120032.000,A,3351.2272,S,15112.9000,E,19.44,0.0,061026,,,A*6A

$GPGSV,3,1,09,02,45,120,24,05,30,210,29,12,60,045,34,15,20,300,39*76
$GPGSV,3,2,09,18,70,180,24,24,15,090,29,25,35,260,34,29,50,020,*7E
$GPGSV,3,3,09,31,10,150,*47
$BDGSV,2,1,06,06,40,100,22,09,25,220,26,14,55,330,30,19,65,010,34*6F
$BDGSV,2,2,06,21,30,170,22,22,12,250,*6C
$GNGGA,120033.000,3351.2218,S,15112.9000,E,1,08,1.2,25.3,M,22.1,M,,*60
$GNRMC,120033.000,A,3351.2218,S,15112.9000,E,19.44,0.0,061026,,,A*67

$GPGSV,3,1,09,02,45,120,24,05,30,210,29,12,60,045,34,15,20,300,39*76
$GPGSV,3,2,09,18,70,180,24,24,15,090,29,25,35,260,34,29,50,020,*7E
$GPGSV,3,3,09,31,10,150,*47
$BDGSV,2,1,06,06,40,100,22,09,25,220,26,14,55,330,30,19,65,010,34*6F
$BDGSV,2,2,06,21,30,170,22,22,12,250,*6C
$GNGGA,120034.000,3351.2164,S,15112.9000,E,1,08,1.2,25.3,M,22.1,M,,*6F
$GNRMC,120034.000,A,3351.2164,S,15112.9000,E,19.44,0.0,061026,,,A*68

$GPGSV,3,1,09,02,45,120,24,05,30,210,29,12,60,045,34,15,20,300,39*76
$GPGSV,3,2,09,18,70,180,24,24,15,090,29,25,35,260,34,29,50,020,*7E
$GPGSV,3,3,09,31,10,150,*47
$BDGSV,2,1,06,06,40,100,22,09,25,220,26,14,55,330,30,19,65,010,34*6F
$BDGSV,2,2,06,21,30,170,22,22,12,250,*6C
$GNGGA,120035.000,3351.2110,S,15112.9000,E,1,08,1.2,25.3,M,22.1,M,,*6D
$GNRMC,120035.000,A,3351.2110,S,15112.9000,E,19.44,0.0,061026,,,A*6A

$GPGSV,3,1,09,02,45,120,24,05,30,210,29,12,60,045,34,15,20,300,39*76
$GPGSV,3,2,09,18,70,180,24,24,15,090,29,25,35,260,34,29,50,020,*7E
$GPGSV,3,3,09,31,10,150,*47
$BDGSV,2,1,06,06,40,100,22,09,25,220,26,14,55,330,30,19,65,010,34*6F
$BDGSV,2,2,06,21,30,170,22,22,12,250,*6C
$GNGGA,120036.000,3351.2056,S,15112.9000,E,1,08,1.2,25.3,M,22.1,M,,*6D
$GNRMC,120036.000,A,3351.2056,S,15112.9000,E,19.44,0.0,061026,,,A*6A

$GPGSV,3,1,09,02,45,120,24,05,30,210,29,12,60,045,34,15,20,300,39*76
$GPGSV,3,2,09,18,70,180,24,24,15,090,29,25,35,260,34,29,50,020,*7E
$GPGSV,3,3,09,31,10,150,*47
$BDGSV,2,1,06,06,40,100,22,09,25,220,26,14,55,330,30,19,65,010,34*6F
$BDGSV,2,2,06,21,30,170,22,22,12,250,*6C
$GNGGA,120037.000,3351.2002,S,15112.9000,E,1,08,1.2,25.3,M,22.1,M,,*6D
$GNRMC,120037.000,A,3351.2002,S,15112.9000,E,19.44,0.0,061026,,,A*6A

$GPGSV,3,1,09,02,45,120,24,05,30,210,29,12,60,045,34,15,20,300,39*76
$GPGSV,3,2,09,18,70,180,24,24,15,090,29,25,35,260,34,29,50,020,*7E
$GPGSV,3,3,09,31,10,150,*47
$BDGSV,2,1,06,06,40,100,22,09,25,220,26,14,55,330,30,19,65,010,34*6F
$BDGSV,2,2,06,21,30,170,22,22,12,250,*6C
$GNGGA,120038.000,3351.1948,S,15112.9000,E,1,08,1.2,25.3,M,22.1,M,,*66
$GNRMC,120038.000,A,3351.1948,S,15112.9000,E,19.44,0.0,061026,,,A*61

$GPGSV,3,1,09,02,45,120,24,05,30,210,29,12,60,045,34,15,20,300,39*76
$GPGSV,3,2,09,18,70,180,24,24,15,090,29,25,35,260,34,29,50,020,*7E
$GPGSV,3,3,09,31,10,150,*47
$BDGSV,2,1,06,06,40,100,22,09,25,220,26,14,55,330,30,19,65,010,34*6F
$BDGSV,2,2,06,21,30,170,22,22,12,250,*6C
$GNGGA,120039.000,3351.1894,S,15112.9000,E,1,08,1.2,25.3,M,22.1,M,,*67
$GNRMC,120039.000,A,3351.1894,S,15112.9000,E,19.44,0.0,061026,,,A*60

$GPGSV,3,1,09,02,45,120,24,05,30,210,29,12,60,045,34,15,20,300,39*76
$GPGSV,3,2,09,18,70,180,24,24,15,090,29,25,35,260,34,29,50,020,*7E
$GPGSV,3,3,09,31,10,150,*47
$BDGSV,2,1,06,06,40,100,22,09,25,220,26,14,55,330,30,19,65,010,34*6F
$BDGSV,2,2,06,21,30,170,22,22,12,250,*6C
$GNGGA,120040.000,3351.1840,S,15112.9000,E,1,08,1.2,25.3,M,22.1,M,,*60
$GNRMC,120040.000,A,3351.1840,S,15112.9000,E,19.44,0.0,061026,,,A*67

$GPGSV,3,1,09,02,45,120,24,05,30,210,29,12,60,045,34,15,20,300,39*76
$GPGSV,3,2,09,18,70,180,24,24,15,090,29,25,35,260,34,29,50,020,*7E
$GPGSV,3,3,09,31,10,150,*47
$BDGSV,2,1,06,06,40,100,22,09,25,220,26,14,55,330,30,19,65,010,34*6F
$BDGSV,2,2,06,21,30,170,22,22,12,250,*6C
$GNGGA,120041.000,3351.1786,S,15112.9000,E,1,08,1.2,25.3,M,22.1,M,,*64
$GNRMC,120041.000,A,3351.1786,S,15112.9000,E,19.44,0.0,061026,,,A*63

$GPGSV,3,1,09,02,45,120,24,05,30,210,29,12,60,045,34,15,20,300,39*76
$GPGSV,3,2,09,18,70,180,24,24,15,090,29,25,35,260,34,29,50,020,*7E
$GPGSV,3,3,09,31,10,150,*47
$BDGSV,2,1,06,06,40,100,22,09,25,220,26,14,55,330,30,19,65,010,34*6F
$BDGSV,2,2,06,21,30,170,22,22,12,250,*6C
$GNGGA,120042.000,3351.1732,S,15112.9000,E,1,08,1.2,25.3,M,22.1,M,,*68
$GNRMC,120042.000,A,3351.1732,S,15112.9000,E,19.44,0.0,061026,,,A*6F

$GPGSV,3,1,09,02,45,120,24,05,30,210,29,12,60,045,34,15,20,300,39*76
$GPGSV,3,2,09,18,70,180,24,24,15,090,29,25,35,260,34,29,50,020,*7E
$GPGSV,3,3,09,31,10,150,*47
$BDGSV,2,1,06,06,40,100,22,09,25,220,26,14,55,330,30,19,65,010,34*6F
$BDGSV,2,2,06,21,30,170,22,22,12,250,*6C
$GNGGA,120043.000,3351.1678,S,15112.9000,E,1,08,1.2,25.3,M,22.1,M,,*66
$GNRMC,120043.000,A,3351.1678,S,15112.9000,E,19.44,0.0,061026,,,A*61

$GPGSV,3,1,09,02,45,120,24,05,30,210,29,12,60,045,34,15,20,300,39*76
$GPGSV,3,2,09,18,70,180,24,24,15,090,29,25,35,260,34,29,50,020,*7E
$GPGSV,3,3,09,31,10,150,*47
$BDGSV,2,1,06,06,40,100,22,09,25,220,26,14,55,330,30,19,65,010,34*6F
$BDGSV,2,2,06,21,30,170,22,22,12,250,*6C
$GNGGA,120044.000,3351.1624,S,15112.9000,E,1,08,1.2,25.3,M,22.1,M,,*68
$GNRMC,120044.000,A,3351.1624,S,15112.9000,E,19.44,0.0,061026,,,A*6F

$GPGSV,3,1,09,02,45,120,24,05,30,210,29,12,60,045,34,15,20,300,39*76
$GPGSV,3,2,09,18,70,180,24,24,15,090,29,25,35,260,34,29,50,020,*7E
$GPGSV,3,3,09,31,10,150,*47
$BDGSV,2,1,06,06,40,100,22,09,25,220,26,14,55,330,30,19,65,010,34*6F
$BDGSV,2,2,06,21,30,170,22,22,12,250,*6C
$GNGGA,120045.000,3351.1570,S,15112.9000,E,1,08,1.2,25.3,M,22.1,M,,*6B
$GNRMC,120045.000,A,3351.1570,S,15112.9000,E,19.44,0.0,061026,,,A*6C

$GPGSV,3,1,09,02,45,120,24,05,30,210,29,12,60,045,34,15,20,300,39*76
$GPGSV,3,2,09,18,70,180,24,24,15,090,29,25,35,260,34,29,50,020,*7E
$GPGSV,3,3,09,31,10,150,*47
$BDGSV,2,1,06,06,40,100,22,09,25,220,26,14,55,330,30,19,65,010,34*6F
$BDGSV,2,2,06,21,30,170,22,22,12,250,*6C
$GNGGA,120046.000,3351.1516,S,15112.9000,E,1,08,1.2,25.3,M,22.1,M,,*68
$GNRMC,120046.000,A,3351.1516,S,15112.9000,E,19.44,0.0,061026,,,A*6F

$GPGSV,3,1,09,02,45,120,24,05,30,210,29,12,60,045,34,15,20,300,39*76
$GPGSV,3,2,09,18,70,180,24,24,15,090,29,25,35,260,34,29,50,020,*7E
$GPGSV,3,3,09,31,10,150,*47
$BDGSV,2,1,06,06,40,100,22,09,25,220,26,14,55,330,30,19,65,010,34*6F
$BDGSV,2,2,06,21,30,170,22,22,12,250,*6C
$GNGGA,120047.000,3351.1462,S,15112.9000,E,1,08,1.2,25.3,M,22.1,M,,*6B
$GNRMC,120047.000,A,3351.1462,S,15112.9000,E,19.44,0.0,061026,,,A*6C

$GPGSV,3,1,09,02,45,120,24,05,30,210,29,12,60,045,34,15,20,300,39*76
$GPGSV,3,2,09,18,70,180,24,24,15,090,29,25,35,260,34,29,50,020,*7E
$GPGSV,3,3,09,31,10,150,*47
$BDGSV,2,1,06,06,40,100,22,09,25,220,26,14,55,330,30,19,65,010,34*6F
$BDGSV,2,2,06,21,30,170,22,22,12,250,*6C
$GNGGA,120048.000,3351.1408,S,15112.9000,E,1,08,1.2,25.3,M,22.1,M,,*68
$GNRMC,120048.000,A,3351.1408,S,15112.9000,E,19.44,0.0,061026,,,A*6F

$GPGSV,3,1,09,02,45,120,24,05,30,210,29,12,60,045,34,15,20,300,39*76
$GPGSV,3,2,09,18,70,180,24,24,15,090,29,25,35,260,34,29,50,020,*7E
$GPGSV,3,3,09,31,10,150,*47
$BDGSV,2,1,06,06,40,100,22,09,25,220,26,14,55,330,30,19,65,010,34*6F
$BDGSV,2,2,06,21,30,170,22,22,12,250,*6C
$GNGGA,120049.000,3351.1354,S,15112.9000,E,1,08,1.2,25.3,M,22.1,M,,*67
$GNRMC,120049.000,A,3351.1354,S,15112.9000,E,19.44,0.0,061026,,,A*60

$GPGSV,3,1,09,02,45,120,24,05,30,210,29,12,60,045,34,15,20,300,39*76
$GPGSV,3,2,09,18,70,180,24,24,15,090,29,25,35,260,34,29,50,020,*7E
$GPGSV,3,3,09,31,10,150,*47
$BDGSV,2,1,06,06,40,100,22,09,25,220,26,14,55,330,30,19,65,010,34*6F
$BDGSV,2,2,06,21,30,170,22,22,12,250,*6C
$GNGGA,120050.000,3351.1300,S,15112.9000,E,1,08,1.2,25.3,M,22.1,M,,*6E
$GNRMC,120050.000,A,3351.1300,S,15112.9000,E,19.44,0.0,061026,,,A*69

$GPGSV,3,1,09,02,45,120,24,05,30,210,29,12,60,045,34,15,20,300,39*76
$GPGSV,3,2,09,18,70,180,24,24,15,090,29,25,35,260,34,29,50,020,*7E
$GPGSV,3,3,09,31,10,150,*47
$BDGSV,2,1,06,06,40,100,22,09,25,220,26,14,55,330,30,19,65,010,34*6F
$BDGSV,2,2,06,21,30,170,22,22,12,250,*6C
$GNGGA,120051.000,3351.1246,S,15112.9000,E,1,08,1.2,25.3,M,22.1,M,,*6C
$GNRMC,120051.000,A,3351.1246,S,15112.9000,E,19.44,0.0,061026,,,A*6B

$GPGSV,3,1,09,02,45,120,24,05,30,210,29,12,60,045,34,15,20,300,39*76
$GPGSV,3,2,09,18,70,180,24,24,15,090,29,25,35,260,34,29,50,020,*7E
$GPGSV,3,3,09,31,10,150,*47
$BDGSV,2,1,06,06,40,100,22,09,25,220,26,14,55,330,30,19,65,010,34*6F
$BDGSV,2,2,06,21,30,170,22,22,12,250,*6C
$GNGGA,120052.000,3351.1192,S,15112.9000,E,1,08,1.2,25.3,M,22.1,M,,*65
$GNRMC,120052.000,A,3351.1192,S,15112.9000,E,19.44,0.0,061026,,,A*62

$GPGSV,3,1,09,02,45,120,24,05,30,210,29,12,60,045,34,15,20,300,39*76
$GPGSV,3,2,09,18,70,180,24,24,15,090,29,25,35,260,34,29,50,020,*7E
$GPGSV,3,3,09,31,10,150,*47
$BDGSV,2,1,06,06,40,100,22,09,25,220,26,14,55,330,30,19,65,010,34*6F
$BDGSV,2,2,06,21,30,170,22,22,12,250,*6C
$GNGGA,120053.000,3351.1138,S,15112.9000,E,1,08,1.2,25.3,M,22.1,M,,*64
$GNRMC,120053.000,A,3351.1138,S,15112.9000,E,19.44,0.0,061026,,,A*63

$GPGSV,3,1,09,02,45,120,24,05,30,210,29,12,60,045,34,15,20,300,39*76
$GPGSV,3,2,09,18,70,180,24,24,15,090,29,25,35,260,34,29,50,020,*7E
$GPGSV,3,3,09,31,10,150,*47
$BDGSV,2,1,06,06,40,100,22,09,25,220,26,14,55,330,30,19,65,010,34*6F
$BDGSV,2,2,06,21,30,170,22,22,12,250,*6C
$GNGGA,120054.000,3351.1084,S,15112.9000,E,1,08,1.2,25.3,M,22.1,M,,*65
$GNRMC,120054.000,A,3351.1084,S,15112.9000,E,19.44,0.0,061026,,,A*62

$GPGSV,3,1,09,02,45,120,24,05,30,210,29,12,60,045,34,15,20,300,39*76
$GPGSV,3,2,09,18,70,180,24,24,15,090,29,25,35,260,34,29,50,020,*7E
$GPGSV,3,3,09,31,10,150,*47
$BDGSV,2,1,06,06,40,100,22,09,25,220,26,14,55,330,30,19,65,010,34*6F
$BDGSV,2,2,06,21,30,170,22,22,12,250,*6C
$GNGGA,120055.000,3351.1030,S,15112.9000,E,1,08,1.2,25.3,M,22.1,M,,*6B
$GNRMC,120055.000,A,3351.1030,S,15112.9000,E,19.44,0.0,061026,,,A*6C

$GPGSV,3,1,09,02,45,120,24,05,30,210,29,12,60,045,34,15,20,300,39*76
$GPGSV,3,2,09,18,70,180,24,24,15,090,29,25,35,260,34,29,50,020,*7E
$GPGSV,3,3,09,31,10,150,*47
$BDGSV,2,1,06,06,40,100,22,09,25,220,26,14,55,330,30,19,65,010,34*6F
$BDGSV,2,2,06,21,30,170,22,22,12,250,*6C
$GNGGA,120056.000,3351.0976,S,15112.9000,E,1,08,1.2,25.3,M,22.1,M,,*62
$GNRMC,120056.000,A,3351.0976,S,15112.9000,E,19.44,0.0,061026,,,A*65

$GPGSV,3,1,09,02,45,120,24,05,30,210,29,12,60,045,34,15,20,300,39*76
$GPGSV,3,2,09,18,70,180,24,24,15,090,29,25,35,260,34,29,50,020,*7E
$GPGSV,3,3,09,31,10,150,*47
$BDGSV,2,1,06,06,40,100,22,09,25,220,26,14,55,330,30,19,65,010,34*6F
$BDGSV,2,2,06,21,30,170,22,22,12,250,*6C
$GNGGA,120057.000,3351.0922,S,15112.9000,E,1,08,1.2,25.3,M,22.1,M,,*62
$GNRMC,120057.000,A,3351.0922,S,15112.9000,E,19.44,0.0,061026,,,A*65

$GPGSV,3,1,09,02,45,120,24,05,30,210,29,12,60,045,34,15,20,300,39*76
$GPGSV,3,2,09,18,70,180,24,24,15,090,29,25,35,260,34,29,50,020,*7E
$GPGSV,3,3,09,31,10,150,*47
$BDGSV,2,1,06,06,40,100,22,09,25,220,26,14,55,330,30,19,65,010,34*6F
$BDGSV,2,2,06,21,30,170,22,22,12,250,*6C
$GNGGA,120058.000,3351.0868,S,15112.9000,E,1,08,1.2,25.3,M,22.1,M,,*62
$GNRMC,120058.000,A,3351.0868,S,15112.9000,E,19.44,0.0,061026,,,A*65

$GPGSV,3,1,09,02,45,120,24,05,30,210,29,12,60,045,34,15,20,300,39*76
$GPGSV,3,2,09,18,70,180,24,24,15,090,29,25,35,260,34,29,50,020,*7E
$GPGSV,3,3,09,31,10,150,*47
$BDGSV,2,1,06,06,40,100,22,09,25,220,26,14,55,330,30,19,65,010,34*6F
$BDGSV,2,2,06,21,30,170,22,22,12,250,*6C
$GNGGA,120059.000,3351.0814,S,15112.9000,E,1,08,1.2,25.3,M,22.1,M,,*68
$GNRMC,120059.000,A,3351.0814,S,15112.9000,E,19.44,0.0,061026,,,A*6F

$GPGSV,3,1,09,02,45,120,24,05,30,210,29,12,60,045,34,15,20,300,39*76
$GPGSV,3,2,09,18,70,180,24,24,15,090,29,25,35,260,34,29,50,020,*7E
$GPGSV,3,3,09,31,10,150,*47
$BDGSV,2,1,06,06,40,100,22,09,25,220,26,14,55,330,30,19,65,010,34*6F
$BDGSV,2,2,06,21,30,170,22,22,12,250,*6C
$GNGGA,120100.000,3351.0760,S,15112.9000,E,1,08,1.2,25.3,M,22.1,M,,*69
$GNRMC,120100.000,A,3351.0760,S,15112.9000,E,19.44,0.0,061026,,,A*6E

$GPGSV,3,1,09,02,45,120,24,05,30,210,29,12,60,045,34,15,20,300,39*76
$GPGSV,3,2,09,18,70,180,24,24,15,090,29,25,35,260,34,29,50,020,*7E
$GPGSV,3,3,09,31,10,150,*47
$BDGSV,2,1,06,06,40,100,22,09,25,220,26,14,55,330,30,19,65,010,34*6F
$BDGSV,2,2,06,21,30,170,22,22,12,250,*6C
$GNGGA,120101.000,3351.0706,S,15112.9000,E,1,08,1.2,25.3,M,22.1,M,,*68
$GNRMC,120101.000,A,3351.0706,S,15112.9000,E,19.44,0.0,061026,,,A*6F

$GPGSV,3,1,09,02,45,120,24,05,30,210,29,12,60,045,34,15,20,300,39*76
$GPGSV,3,2,09,18,70,180,24,24,15,090,29,25,35,260,34,29,50,020,*7E
$GPGSV,3,3,09,31,10,150,*47
$BDGSV,2,1,06,06,40,100,22,09,25,220,26,14,55,330,30,19,65,010,34*6F
$BDGSV,2,2,06,21,30,170,22,22,12,250,*6C
$GNGGA,120102.000,3351.0652,S,15112.9000,E,1,08,1.2,25.3,M,22.1,M,,*6B
$GNRMC,120102.000,A,3351.0652,S,15112.9000,E,19.44,0.0,061026,,,A*6C

$GPGSV,3,1,09,02,45,120,24,05,30,210,29,12,60,045,34,15,20,300,39*76
$GPGSV,3,2,09,18,70,180,24,24,15,090,29,25,35,260,34,29,50,020,*7E
$GPGSV,3,3,09,31,10,150,*47
$BDGSV,2,1,06,06,40,100,22,09,25,220,26,14,55,330,30,19,65,010,34*6F
$BDGSV,2,2,06,21,30,170,22,22,12,250,*6C
$GNGGA,120103.000,3351.0598,S,15112.9000,E,1,08,1.2,25.3,M,22.1,M,,*6F
$GNRMC,120103.000,A,3351.0598,S,15112.9000,E,19.44,0.0,061026,,,A*68

$GPGSV,3,1,09,02,45,120,24,05,30,210,29,12,60,045,34,15,20,300,39*76
$GPGSV,3,2,09,18,70,180,24,24,15,090,29,25,35,260,34,29,50,020,*7E
$GPGSV,3,3,09,31,10,150,*47
$BDGSV,2,1,06,06,40,100,22,09,25,220,26,14,55,330,30,19,65,010,34*6F
$BDGSV,2,2,06,21,30,170,22,22,12,250,*6C
$GNGGA,120104.000,3351.0544,S,15112.9000,E,1,08,1.2,25.3,M,22.1,M,,*69
$GNRMC,120104.000,A,3351.0544,S,15112.9000,E,19.44,0.0,061026,,,A*6E

$GPGSV,3,1,09,02,45,120,24,05,30,210,29,12,60,045,34,15,20,300,39*76
$GPGSV,3,2,09,18,70,180,24,24,15,090,29,25,35,260,34,29,50,020,*7E
$GPGSV,3,3,09,31,10,150,*47
$BDGSV,2,1,06,06,40,100,22,09,25,220,26,14,55,330,30,19,65,010,34*6F
$BDGSV,2,2,06,21,30,170,22,22,12,250,*6C
$GNGGA,120105.000,3351.0490,S,15112.9000,E,1,08,1.2,25.3,M,22.1,M,,*60
$GNRMC,120105.000,A,3351.0490,S,15112.9000,E,19.44,0.0,061026,,,A*67

$GPGSV,3,1,09,02,45,120,24,05,30,210,29,12,60,045,34,15,20,300,39*76
$GPGSV,3,2,09,18,70,180,24,24,15,090,29,25,35,260,34,29,50,020,*7E
$GPGSV,3,3,09,31,10,150,*47
$BDGSV,2,1,06,06,40,100,22,09,25,220,26,14,55,330,30,19,65,010,34*6F
$BDGSV,2,2,06,21,30,170,22,22,12,250,*6C
$GNGGA,120106.000,3351.0436,S,15112.9000,E,1,08,1.2,25.3,M,22.1,M,,*6F
$GNRMC,120106.000,A,3351.0436,S,15112.9000,E,19.44,0.0,061026,,,A*68

$GPGSV,3,1,09,02,45,120,24,05,30,210,29,12,60,045,34,15,20,300,39*76
$GPGSV,3,2,09,18,70,180,24,24,15,090,29,25,35,260,34,29,50,020,*7E
$GPGSV,3,3,09,31,10,150,*47
$BDGSV,2,1,06,06,40,100,22,09,25,220,26,14,55,330,30,19,65,010,34*6F
$BDGSV,2,2,06,21,30,170,22,22,12,250,*6C
$GNGGA,120107.000,3351.0382,S,15112.9000,E,1,08,1.2,25.3,M,22.1,M,,*66
$GNRMC,120107.000,A,3351.0382,S,15112.9000,E,19.44,0.0,061026,,,A*61

$GPGSV,3,1,09,02,45,120,24,05,30,210,29,12,60,045,34,15,20,300,39*76
$GPGSV,3,2,09,18,70,180,24,24,15,090,29,25,35,260,34,29,50,020,*7E
$GPGSV,3,3,09,31,10,150,*47
$BDGSV,2,1,06,06,40,100,22,09,25,220,26,14,55,330,30,19,65,010,34*6F
$BDGSV,2,2,06,21,30,170,22,22,12,250,*6C
$GNGGA,120108.000,3351.0328,S,15112.9000,E,1,08,1.2,25.3,M,22.1,M,,*69
$GNRMC,120108.000,A,3351.0328,S,15112.9000,E,19.44,0.0,061026,,,A*6E

$GPGSV,3,1,09,02,45,120,24,05,30,210,29,12,60,045,34,15,20,300,39*76
$GPGSV,3,2,09,18,70,180,24,24,15,090,29,25,35,260,34,29,50,020,*7E
$GPGSV,3,3,09,31,10,150,*47
$BDGSV,2,1,06,06,40,100,22,09,25,220,26,14,55,330,30,19,65,010,34*6F
$BDGSV,2,2,06,21,30,170,22,22,12,250,*6C
$GNGGA,120109.000,3351.0274,S,15112.9000,E,1,08,1.2,25.3,M,22.1,M,,*60
$GNRMC,120109.000,A,3351.0274,S,15112.9000,E,19.44,0.0,061026,,,A*67

$GPGSV,3,1,09,02,45,120,24,05,30,210,29,12,60,045,34,15,20,300,39*76
$GPGSV,3,2,09,18,70,180,24,24,15,090,29,25,35,260,34,29,50,020,*7E
$GPGSV,3,3,09,31,10,150,*47
$BDGSV,2,1,06,06,40,100,22,09,25,220,26,14,55,330,30,19,65,010,34*6F
$BDGSV,2,2,06,21,30,170,22,22,12,250,*6C
$GNGGA,120110.000,3351.0220,S,15112.9000,E,1,08,1.2,25.3,M,22.1,M,,*69
$GNRMC,120110.000,A,3351.0220,S,15112.9000,E,19.44,0.0,061026,,,A*6E

$GPGSV,3,1,09,02,45,120,24,05,30,210,29,12,60,045,34,15,20,300,39*76
$GPGSV,3,2,09,18,70,180,24,24,15,090,29,25,35,260,34,29,50,020,*7E
$GPGSV,3,3,09,31,10,150,*47
$BDGSV,2,1,06,06,40,100,22,09,25,220,26,14,55,330,30,19,65,010,34*6F
$BDGSV,2,2,06,21,30,170,22,22,12,250,*6C
$GNGGA,120111.000,3351.0166,S,15112.9000,E,1,08,1.2,25.3,M,22.1,M,,*69
$GNRMC,120111.000,A,3351.0166,S,15112.9000,E,19.44,0.0,061026,,,A*6E

$GPGSV,3,1,09,02,45,120,24,05,30,210,29,12,60,045,34,15,20,300,39*76
$GPGSV,3,2,09,18,70,180,24,24,15,090,29,25,35,260,34,29,50,020,*7E
$GPGSV,3,3,09,31,10,150,*47
$BDGSV,2,1,06,06,40,100,22,09,25,220,26,14,55,330,30,19,65,010,34*6F
$BDGSV,2,2,06,21,30,170,22,22,12,250,*6C
$GNGGA,120112.000,3351.0112,S,15112.9000,E,1,08,1.2,25.3,M,22.1,M,,*69
$GNRMC,120112.000,A,3351.0112,S,15112.9000,E,19.44,0.0,061026,,,A*6E

$GPGSV,3,1,09,02,45,120,24,05,30,210,29,12,60,045,34,15,20,300,39*76
$GPGSV,3,2,09,18,70,180,24,24,15,090,29,25,35,260,34,29,50,020,*7E
$GPGSV,3,3,09,31,10,150,*47
$BDGSV,2,1,06,06,40,100,22,09,25,220,26,14,55,330,30,19,65,010,34*6F
$BDGSV,2,2,06,21,30,170,22,22,12,250,*6C
$GNGGA,120113.000,3351.0058,S,15112.9000,E,1,08,1.2,25.3,M,22.1,M,,*67
$GNRMC,120113.000,A,3351.0058,S,15112.9000,E,19.44,0.0,061026,,,A*60

$GPGSV,3,1,09,02,45,120,24,05,30,210,29,12,60,045,34,15,20,300,39*76
$GPGSV,3,2,09,18,70,180,24,24,15,090,29,25,35,260,34,29,50,020,*7E
$GPGSV,3,3,09,31,10,150,*47
$BDGSV,2,1,06,06,40,100,22,09,25,220,26,14,55,330,30,19,65,010,34*6F
$BDGSV,2,2,06,21,30,170,22,22,12,250,*6C
$GNGGA,120114.000,3351.0004,S,15112.9000,E,1,08,1.2,25.3,M,22.1,M,,*69
$GNRMC,120114.000,A,3351.0004,S,15112.9000,E,19.44,0.0,061026,,,A*6E

$GPGSV,3,1,09,02,45,120,24,05,30,210,29,12,60,045,34,15,20,300,39*76
$GPGSV,3,2,09,18,70,180,24,24,15,090,29,25,35,260,34,29,50,020,*7E
$GPGSV,3,3,09,31,10,150,*47
$BDGSV,2,1,06,06,40,100,22,09,25,220,26,14,55,330,30,19,65,010,34*6F
$BDGSV,2,2,06,21,30,170,22,22,12,250,*6C
$GNGGA,120115.000,3350.9950,S,15112.9000,E,1,08,1.2,25.3,M,22.1,M,,*68
$GNRMC,120115.000,A,3350.9950,S,15112.9000,E,19.44,0.0,061026,,,A*6F

$GPGSV,3,1,09,02,45,120,24,05,30,210,29,12,60,045,34,15,20,300,39*76
$GPGSV,3,2,09,18,70,180,24,24,15,090,29,25,35,260,34,29,50,020,*7E
$GPGSV,3,3,09,31,10,150,*47
$BDGSV,2,1,06,06,40,100,22,09,25,220,26,14,55,330,30,19,65,010,34*6F
$BDGSV,2,2,06,21,30,170,22,22,12,250,*6C
$GNGGA,120116.000,3350.9896,S,15112.9000,E,1,08,1.2,25.3,M,22.1,M,,*60
$GNRMC,120116.000,A,3350.9896,S,15112.9000,E,19.44,0.0,061026,,,A*67

$GPGSV,3,1,09,02,45,120,24,05,30,210,29,12,60,045,34,15,20,300,39*76
$GPGSV,3,2,09,18,70,180,24,24,15,090,29,25,35,260,34,29,50,020,*7E
$GPGSV,3,3,09,31,10,150,*47
$BDGSV,2,1,06,06,40,100,22,09,25,220,26,14,55,330,30,19,65,010,34*6F
$BDGSV,2,2,06,21,30,170,22,22,12,250,*6C
$GNGGA,120117.000,3350.9842,S,15112.9000,E,1,08,1.2,25.3,M,22.1,M,,*68
$GNRMC,120117.000,A,3350.9842,S,15112.9000,E,19.44,0.0,061026,,,A*6F

$GPGSV,3,1,09,02,45,120,24,05,30,210,29,12,60,045,34,15,20,300,39*76
$GPGSV,3,2,09,18,70,180,24,24,15,090,29,25,35,260,34,29,50,020,*7E
$GPGSV,3,3,09,31,10,150,*47
$BDGSV,2,1,06,06,40,100,22,09,25,220,26,14,55,330,30,19,65,010,34*6F
$BDGSV,2,2,06,21,30,170,22,22,12,250,*6C
$GNGGA,120118.000,3350.9788,S,15112.9000,E,1,08,1.2,25.3,M,22.1,M,,*6E
$GNRMC,120118.000,A,3350.9788,S,15112.9000,E,19.44,0.0,061026,,,A*69

$GPGSV,3,1,09,02,45,120,24,05,30,210,29,12,60,045,34,15,20,300,39*76
$GPGSV,3,2,09,18,70,180,24,24,15,090,29,25,35,260,34,29,50,020,*7E
$GPGSV,3,3,09,31,10,150,*47
$BDGSV,2,1,06,06,40,100,22,09,25,220,26,14,55,330,30,19,65,010,34*6F
$BDGSV,2,2,06,21,30,170,22,22,12,250,*6C
$GNGGA,120119.000,3350.9734,S,15112.9000,E,1,08,1.2,25.3,M,22.1,M,,*68
$GNRMC,120119.000,A,3350.9734,S,15112.9000,E,19.44,0.0,061026,,,A*6F

$GPGSV,3,1,09,02,45,120,24,05,30,210,29,12,60,045,34,15,20,300,39*76
$GPGSV,3,2,09,18,70,180,24,24,15,090,29,25,35,260,34,29,50,020,*7E
$GPGSV,3,3,09,31,10,150,*47
$BDGSV,2,1,06,06,40,100,22,09,25,220,26,14,55,330,30,19,65,010,34*6F
$BDGSV,2,2,06,21,30,170,22,22,12,250,*6C
$GNGGA,120120.000,3350.9680,S,15112.9000,E,1,08,1.2,25.3,M,22.1,M,,*6C
$GNRMC,120120.000,A,3350.9680,S,15112.9000,E,19.44,0.0,061026,,,A*6B

$GPGSV,3,1,09,02,45,120,24,05,30,210,29,12,60,045,34,15,20,300,39*76
$GPGSV,3,2,09,18,70,180,24,24,15,090,29,25,35,260,34,29,50,020,*7E
$GPGSV,3,3,09,31,10,150,*47
$BDGSV,2,1,06,06,40,100,22,09,25,220,26,14,55,330,30,19,65,010,34*6F
$BDGSV,2,2,06,21,30,170,22,22,12,250,*6C
$GNGGA,120121.000,3350.9626,S,15112.9000,E,1,08,1.2,25.3,M,22.1,M,,*61
$GNRMC,120121.000,A,3350.9626,S,15112.9000,E,19.44,0.0,061026,,,A*66

$GPGSV,3,1,09,02,45,120,24,05,30,210,29,12,60,045,34,15,20,300,39*76
$GPGSV,3,2,09,18,70,180,24,24,15,090,29,25,35,260,34,29,50,020,*7E
$GPGSV,3,3,09,31,10,150,*47
$BDGSV,2,1,06,06,40,100,22,09,25,220,26,14,55,330,30,19,65,010,34*6F
$BDGSV,2,2,06,21,30,170,22,22,12,250,*6C
$GNGGA,120122.000,3350.9572,S,15112.9000,E,1,08,1.2,25.3,M,22.1,M,,*60
$GNRMC,120122.000,A,3350.9572,S,15112.9000,E,19.44,0.0,061026,,,A*67

$GPGSV,3,1,09,02,45,120,24,05,30,210,29,12,60,045,34,15,20,300,39*76
$GPGSV,3,2,09,18,70,180,24,24,15,090,29,25,35,260,34,29,50,020,*7E
$GPGSV,3,3,09,31,10,150,*47
$BDGSV,2,1,06,06,40,100,22,09,25,220,26,14,55,330,30,19,65,010,34*6F
$BDGSV,2,2,06,21,30,170,22,22,12,250,*6C
$GNGGA,120123.000,3350.9518,S,15112.9000,E,1,08,1.2,25.3,M,22.1,M,,*6D
$GNRMC,120123.000,A,3350.9518,S,15112.9000,E,19.44,0.0,061026,,,A*6A

$GPGSV,3,1,09,02,45,120,24,05,30,210,29,12,60,045,34,15,20,300,39*76
$GPGSV,3,2,09,18,70,180,24,24,15,090,29,25,35,260,34,29,50,020,*7E
$GPGSV,3,3,09,31,10,150,*47
$BDGSV,2,1,06,06,40,100,22,09,25,220,26,14,55,330,30,19,65,010,34*6F
$BDGSV,2,2,06,21,30,170,22,22,12,250,*6C
$GNGGA,120124.000,3350.9464,S,15112.9000,E,1,08,1.2,25.3,M,22.1,M,,*60
$GNRMC,120124.000,A,3350.9464,S,15112.9000,E,19.44,0.0,061026,,,A*67

$GPGSV,3,1,09,02,45,120,24,05,30,210,29,12,60,045,34,15,20,300,39*76
$GPGSV,3,2,09,18,70,180,24,24,15,090,29,25,35,260,34,29,50,020,*7E
$GPGSV,3,3,09,31,10,150,*47
$BDGSV,2,1,06,06,40,100,22,09,25,220,26,14,55,330,30,19,65,010,34*6F
$BDGSV,2,2,06,21,30,170,22,22,12,250,*6C
$GNGGA,120125.000,3350.9410,S,15112.9000,E,1,08,1.2,25.3,M,22.1,M,,*62
$GNRMC,120125.000,A,3350.9410,S,15112.9000,E,19.44,0.0,061026,,,A*65

$GPGSV,3,1,09,02,45,120,24,05,30,210,29,12,60,045,34,15,20,300,39*76
$GPGSV,3,2,09,18,70,180,24,24,15,090,29,25,35,260,34,29,50,020,*7E
$GPGSV,3,3,09,31,10,150,*47
$BDGSV,2,1,06,06,40,100,22,09,25,220,26,14,55,330,30,19,65,010,34*6F
$BDGSV,2,2,06,21,30,170,22,22,12,250,*6C
$GNGGA,120126.000,3350.9356,S,15112.9000,E,1,08,1.2,25.3,M,22.1,M,,*64
$GNRMC,120126.000,A,3350.9356,S,15112.9000,E,19.44,0.0,061026,,,A*63

$GPGSV,3,1,09,02,45,120,24,05,30,210,29,12,60,045,34,15,20,300,39*76
$GPGSV,3,2,09,18,70,180,24,24,15,090,29,25,35,260,34,29,50,020,*7E
$GPGSV,3,3,09,31,10,150,*47
$BDGSV,2,1,06,06,40,100,22,09,25,220,26,14,55,330,30,19,65,010,34*6F
$BDGSV,2,2,06,21,30,170,22,22,12,250,*6C
$GNGGA,120127.000,3350.9302,S,15112.9000,E,1,08,1.2,25.3,M,22.1,M,,*64
$GNRMC,120127.000,A,3350.9302,S,15112.9000,E,19.44,0.0,061026,,,A*63

$GPGSV,3,1,09,02,45,120,24,05,30,210,29,12,60,045,34,15,20,300,39*76
$GPGSV,3,2,09,18,70,180,24,24,15,090,29,25,35,260,34,29,50,020,*7E
$GPGSV,3,3,09,31,10,150,*47
$BDGSV,2,1,06,06,40,100,22,09,25,220,26,14,55,330,30,19,65,010,34*6F
$BDGSV,2,2,06,21,30,170,22,22,12,250,*6C
$GNGGA,120128.000,3350.9248,S,15112.9000,E,1,08,1.2,25.3,M,22.1,M,,*64
$GNRMC,120128.000,A,3350.9248,S,15112.9000,E,19.44,0.0,061026,,,A*63

$GPGSV,3,1,09,02,45,120,24,05,30,210,29,12,60,045,34,15,20,300,39*76
$GPGSV,3,2,09,18,70,180,24,24,15,090,29,25,35,260,34,29,50,020,*7E
$GPGSV,3,3,09,31,10,150,*47
$BDGSV,2,1,06,06,40,100,22,09,25,220,26,14,55,330,30,19,65,010,34*6F
$BDGSV,2,2,06,21,30,170,22,22,12,250,*6C
$GNGGA,120129.000,3350.9194,S,15112.9000,E,1,08,1.2,25.3,M,22.1,M,,*67
$GNRMC,120129.000,A,3350.9194,S,15112.9000,E,19.44,0.0,061026,,,A*60

$GPGSV,3,1,09,02,45,120,24,05,30,210,29,12,60,045,34,15,20,300,39*76
$GPGSV,3,2,09,18,70,180,24,24,15,090,29,25,35,260,34,29,50,020,*7E
$GPGSV,3,3,09,31,10,150,*47
$BDGSV,2,1,06,06,40,100,22,09,25,220,26,14,55,330,30,19,65,010,34*6F
$BDGSV,2,2,06,21,30,170,22,22,12,250,*6C
$GNGGA,120130.000,3350.9140,S,15112.9000,E,1,08,1.2,25.3,M,22.1,M,,*66
$GNRMC,120130.000,A,3350.9140,S,15112.9000,E,19.44,0.0,061026,,,A*61

$GPGSV,3,1,09,02,45,120,24,05,30,210,29,12,60,045,34,15,20,300,39*76
$GPGSV,3,2,09,18,70,180,24,24,15,090,29,25,35,260,34,29,50,020,*7E
$GPGSV,3,3,09,31,10,150,*47
$BDGSV,2,1,06,06,40,100,22,09,25,220,26,14,55,330,30,19,65,010,34*6F
$BDGSV,2,2,06,21,30,170,22,22,12,250,*6C
$GNGGA,120131.000,3350.9086,S,15112.9000,E,1,08,1.2,25.3,M,22.1,M,,*6C
$GNRMC,120131.000,A,3350.9086,S,15112.9000,E,19.44,0.0,061026,,,A*6B

$GPGSV,3,1,09,02,45,120,24,05,30,210,29,12,60,045,34,15,20,300,39*76
$GPGSV,3,2,09,18,70,180,24,24,15,090,29,25,35,260,34,29,50,020,*7E
$GPGSV,3,3,09,31,10,150,*47
$BDGSV,2,1,06,06,40,100,22,09,25,220,26,14,55,330,30,19,65,010,34*6F
$BDGSV,2,2,06,21,30,170,22,22,12,250,*6C
$GNGGA,120132.000,3350.9032,S,15112.9000,E,1,08,1.2,25.3,M,22.1,M,,*60
$GNRMC,120132.000,A,3350.9032,S,15112.9000,E,19.44,0.0,061026,,,A*67

$GPGSV,3,1,09,02,45,120,24,05,30,210,29,12,60,045,34,15,20,300,39*76
$GPGSV,3,2,09,18,70,180,24,24,15,090,29,25,35,260,34,29,50,020,*7E
$GPGSV,3,3,09,31,10,150,*47
$BDGSV,2,1,06,06,40,100,22,09,25,220,26,14,55,330,30,19,65,010,34*6F
$BDGSV,2,2,06,21,30,170,22,22,12,250,*6C
$GNGGA,120133.000,3350.8978,S,15112.9000,E,1,08,1.2,25.3,M,22.1,M,,*67
$GNRMC,120133.000,A,3350.8978,S,15112.9000,E,19.44,0.0,061026,,,A*60

$GPGSV,3,1,09,02,45,120,24,05,30,210,29,12,60,045,34,15,20,300,39*76
$GPGSV,3,2,09,18,70,180,24,24,15,090,29,25,35,260,34,29,50,020,*7E
$GPGSV,3,3,09,31,10,150,*47
$BDGSV,2,1,06,06,40,100,22,09,25,220,26,14,55,330,30,19,65,010,34*6F
$BDGSV,2,2,06,21,30,170,22,22,12,250,*6C
$GNGGA,120134.000,3350.8924,S,15112.9000,E,1,08,1.2,25.3,M,22.1,M,,*69
$GNRMC,120134.000,A,3350.8924,S,15112.9000,E,19.44,0.0,061026,,,A*6E

$GPGSV,3,1,09,02,45,120,24,05,30,210,29,12,60,045,34,15,20,300,39*76
$GPGSV,3,2,09,18,70,180,24,24,15,090,29,25,35,260,34,29,50,020,*7E
$GPGSV,3,3,09,31,10,150,*47
$BDGSV,2,1,06,06,40,100,22,09,25,220,26,14,55,330,30,19,65,010,34*6F
$BDGSV,2,2,06,21,30,170,22,22,12,250,*6C
$GNGGA,120135.000,3350.8870,S,15112.9000,E,1,08,1.2,25.3,M,22.1,M,,*68
$GNRMC,120135.000,A,3350.8870,S,15112.9000,E,19.44,0.0,061026,,,A*6F

$GPGSV,3,1,09,02,45,120,24,05,30,210,29,12,60,045,34,15,20,300,39*76
$GPGSV,3,2,09,18,70,180,24,24,15,090,29,25,35,260,34,29,50,020,*7E
$GPGSV,3,3,09,31,10,150,*47
$BDGSV,2,1,06,06,40,100,22,09,25,220,26,14,55,330,30,19,65,010,34*6F
$BDGSV,2,2,06,21,30,170,22,22,12,250,*6C
$GNGGA,120136.000,3350.8816,S,15112.9000,E,1,08,1.2,25.3,M,22.1,M,,*6B
$GNRMC,120136.000,A,3350.8816,S,15112.9000,E,19.44,0.0,061026,,,A*6C

$GPGSV,3,1,09,02,45,120,24,05,30,210,29,12,60,045,34,15,20,300,39*76
$GPGSV,3,2,09,18,70,180,24,24,15,090,29,25,35,260,34,29,50,020,*7E
$GPGSV,3,3,09,31,10,150,*47
$BDGSV,2,1,06,06,40,100,22,09,25,220,26,14,55,330,30,19,65,010,34*6F
$BDGSV,2,2,06,21,30,170,22,22,12,250,*6C
$GNGGA,120137.000,3350.8762,S,15112.9000,E,1,08,1.2,25.3,M,22.1,M,,*66
$GNRMC,120137.000,A,3350.8762,S,15112.9000,E,19.44,0.0,061026,,,A*61

$GPGSV,3,1,09,02,45,120,24,05,30,210,29,12,60,045,34,15,20,300,39*76
$GPGSV,3,2,09,18,70,180,24,24,15,090,29,25,35,260,34,29,50,020,*7E
$GPGSV,3,3,09,31,10,150,*47
$BDGSV,2,1,06,06,40,100,22,09,25,220,26,14,55,330,30,19,65,010,34*6F
$BDGSV,2,2,06,21,30,170,22,22,12,250,*6C
$GNGGA,120138.000,3350.8708,S,15112.9000,E,1,08,1.2,25.3,M,22.1,M,,*65
$GNRMC,120138.000,A,3350.8708,S,15112.9000,E,19.44,0.0,061026,,,A*62

$GPGSV,3,1,09,02,45,120,24,05,30,210,29,12,60,045,34,15,20,300,39*76
$GPGSV,3,2,09,18,70,180,24,24,15,090,29,25,35,260,34,29,50,020,*7E
$GPGSV,3,3,09,31,10,150,*47
$BDGSV,2,1,06,06,40,100,22,09,25,220,26,14,55,330,30,19,65,010,34*6F
$BDGSV,2,2,06,21,30,170,22,22,12,250,*6C
$GNGGA,120139.000,3350.8654,S,15112.9000,E,1,08,1.2,25.3,M,22.1,M,,*6C
$GNRMC,120139.000,A,3350.8654,S,15112.9000,E,19.44,0.0,061026,,,A*6B

$GPGSV,3,1,09,02,45,120,24,05,30,210,29,12,60,045,34,15,20,300,39*76
$GPGSV,3,2,09,18,70,180,24,24,15,090,29,25,35,260,34,29,50,020,*7E
$GPGSV,3,3,09,31,10,150,*47
$BDGSV,2,1,06,06,40,100,22,09,25,220,26,14,55,330,30,19,65,010,34*6F
$BDGSV,2,2,06,21,30,170,22,22,12,250,*6C
$GNGGA,120140.000,3350.8600,S,15112.9000,E,1,08,1.2,25.3,M,22.1,M,,*63
$GNRMC,120140.000,A,3350.8600,S,15112.9000,E,19.44,0.0,061026,,,A*64

$GPGSV,3,1,09,02,45,120,24,05,30,210,29,12,60,045,34,15,20,300,39*76
$GPGSV,3,2,09,18,70,180,24,24,15,090,29,25,35,260,34,29,50,020,*7E
$GPGSV,3,3,09,31,10,150,*47
$BDGSV,2,1,06,06,40,100,22,09,25,220,26,14,55,330,30,19,65,010,34*6F
$BDGSV,2,2,06,21,30,170,22,22,12,250,*6C
$GNGGA,120141.000,3350.8546,S,15112.9000,E,1,08,1.2,25.3,M,22.1,M,,*63
$GNRMC,120141.000,A,3350.8546,S,15112.9000,E,19.44,0.0,061026,,,A*64

$GPGSV,3,1,09,02,45,120,24,05,30,210,29,12,60,045,34,15,20,300,39*76
$GPGSV,3,2,09,18,70,180,24,24,15,090,29,25,35,260,34,29,50,020,*7E
$GPGSV,3,3,09,31,10,150,*47
$BDGSV,2,1,06,06,40,100,22,09,25,220,26,14,55,330,30,19,65,010,34*6F
$BDGSV,2,2,06,21,30,170,22,22,12,250,*6C
$GNGGA,120142.000,3350.8492,S,15112.9000,E,1,08,1.2,25.3,M,22.1,M,,*68
$GNRMC,120142.000,A,3350.8492,S,15112.9000,E,19.44,0.0,061026,,,A*6F

$GPGSV,3,1,09,02,45,120,24,05,30,210,29,12,60,045,34,15,20,300,39*76
$GPGSV,3,2,09,18,70,180,24,24,15,090,29,25,35,260,34,29,50,020,*7E
$GPGSV,3,3,09,31,10,150,*47
$BDGSV,2,1,06,06,40,100,22,09,25,220,26,14,55,330,30,19,65,010,34*6F
$BDGSV,2,2,06,21,30,170,22,22,12,250,*6C
$GNGGA,120143.000,3350.8438,S,15112.9000,E,1,08,1.2,25.3,M,22.1,M,,*69
$GNRMC,120143.000,A,3350.8438,S,15112.9000,E,19.44,0.0,061026,,,A*6E

$GPGSV,3,1,09,02,45,120,24,05,30,210,29,12,60,045,34,15,20,300,39*76
$GPGSV,3,2,09,18,70,180,24,24,15,090,29,25,35,260,34,29,50,020,*7E
$GPGSV,3,3,09,31,10,150,*47
$BDGSV,2,1,06,06,40,100,22,09,25,220,26,14,55,330,30,19,65,010,34*6F
$BDGSV,2,2,06,21,30,170,22,22,12,250,*6C
$GNGGA,120144.000,3350.8384,S,15112.9000,E,1,08,1.2,25.3,M,22.1,M,,*6E
$GNRMC,120144.000,A,3350.8384,S,15112.9000,E,19.44,0.0,061026,,,A*69

$GPGSV,3,1,09,02,45,120,24,05,30,210,29,12,60,045,34,15,20,300,39*76
$GPGSV,3,2,09,18,70,180,24,24,15,090,29,25,35,260,34,29,50,020,*7E
$GPGSV,3,3,09,31,10,150,*47
$BDGSV,2,1,06,06,40,100,22,09,25,220,26,14,55,330,30,19,65,010,34*6F
$BDGSV,2,2,06,21,30,170,22,22,12,250,*6C
$GNGGA,120145.000,3350.8330,S,15112.9000,E,1,08,1.2,25.3,M,22.1,M,,*60
$GNRMC,120145.000,A,3350.8330,S,15112.9000,E,19.44,0.0,061026,,,A*67

$GPGSV,3,1,09,02,45,120,24,05,30,210,29,12,60,045,34,15,20,300,39*76
$GPGSV,3,2,09,18,70,180,24,24,15,090,29,25,35,260,34,29,50,020,*7E
$GPGSV,3,3,09,31,10,150,*47
$BDGSV,2,1,06,06,40,100,22,09,25,220,26,14,55,330,30,19,65,010,34*6F
$BDGSV,2,2,06,21,30,170,22,22,12,250,*6C
$GNGGA,120146.000,3350.8276,S,15112.9000,E,1,08,1.2,25.3,M,22.1,M,,*60
$GNRMC,120146.000,A,3350.8276,S,15112.9000,E,19.44,0.0,061026,,,A*67

$GPGSV,3,1,09,02,45,120,24,05,30,210,29,12,60,045,34,15,20,300,39*76
$GPGSV,3,2,09,18,70,180,24,24,15,090,29,25,35,260,34,29,50,020,*7E
$GPGSV,3,3,09,31,10,150,*47
$BDGSV,2,1,06,06,40,100,22,09,25,220,26,14,55,330,30,19,65,010,34*6F
$BDGSV,2,2,06,21,30,170,22,22,12,250,*6C
$GNGGA,120147.000,3350.8222,S,15112.9000,E,1,08,1.2,25.3,M,22.1,M,,*60
$GNRMC,120147.000,A,3350.8222,S,15112.9000,E,19.44,0.0,061026,,,A*67

$GPGSV,3,1,09,02,45,120,24,05,30,210,29,12,60,045,34,15,20,300,39*76
$GPGSV,3,2,09,18,70,180,24,24,15,090,29,25,35,260,34,29,50,020,*7E
$GPGSV,3,3,09,31,10,150,*47
$BDGSV,2,1,06,06,40,100,22,09,25,220,26,14,55,330,30,19,65,010,34*6F
$BDGSV,2,2,06,21,30,170,22,22,12,250,*6C
$GNGGA,120148.000,3350.8168,S,15112.9000,E,1,08,1.2,25.3,M,22.1,M,,*62
$GNRMC,120148.000,A,3350.8168,S,15112.9000,E,19.44,0.0,061026,,,A*65

$GPGSV,3,1,09,02,45,120,24,05,30,210,29,12,60,045,34,15,20,300,39*76
$GPGSV,3,2,09,18,70,180,24,24,15,090,29,25,35,260,34,29,50,020,*7E
$GPGSV,3,3,09,31,10,150,*47
$BDGSV,2,1,06,06,40,100,22,09,25,220,26,14,55,330,30,19,65,010,34*6F
$BDGSV,2,2,06,21,30,170,22,22,12,250,*6C
$GNGGA,120149.000,3350.8114,S,15112.9000,E,1,08,1.2,25.3,M,22.1,M,,*68
$GNRMC,120149.000,A,3350.8114,S,15112.9000,E,19.44,0.0,061026,,,A*6F

$GPGSV,3,1,09,02,45,120,24,05,30,210,29,12,60,045,34,15,20,300,39*76
$GPGSV,3,2,09,18,70,180,24,24,15,090,29,25,35,260,34,29,50,020,*7E
$GPGSV,3,3,09,31,10,150,*47
$BDGSV,2,1,06,06,40,100,22,09,25,220,26,14,55,330,30,19,65,010,34*6F
$BDGSV,2,2,06,21,30,170,22,22,12,250,*6C
$GNGGA,120150.000,3350.8060,S,15112.9000,E,1,08,1.2,25.3,M,22.1,M,,*62
$GNRMC,120150.000,A,3350.8060,S,15112.9000,E,19.44,0.0,061026,,,A*65

$GPGSV,3,1,09,02,45,120,24,05,30,210,29,12,60,045,34,15,20,300,39*76
$GPGSV,3,2,09,18,70,180,24,24,15,090,29,25,35,260,34,29,50,020,*7E
$GPGSV,3,3,09,31,10,150,*47
$BDGSV,2,1,06,06,40,100,22,09,25,220,26,14,55,330,30,19,65,010,34*6F
$BDGSV,2,2,06,21,30,170,22,22,12,250,*6C
$GNGGA,120151.000,3350.8006,S,15112.9000,E,1,08,1.2,25.3,M,22.1,M,,*63
$GNRMC,120151.000,A,3350.8006,S,15112.9000,E,19.44,0.0,061026,,,A*64

$GPGSV,3,1,09,02,45,120,24,05,30,210,29,12,60,045,34,15,20,300,39*76
$GPGSV,3,2,09,18,70,180,24,24,15,090,29,25,35,260,34,29,50,020,*7E
$GPGSV,3,3,09,31,10,150,*47
$BDGSV,2,1,06,06,40,100,22,09,25,220,26,14,55,330,30,19,65,010,34*6F
$BDGSV,2,2,06,21,30,170,22,22,12,250,*6C
$GNGGA,120152.000,3350.7952,S,15112.9000,E,1,08,1.2,25.3,M,22.1,M,,*67
$GNRMC,120152.000,A,3350.7952,S,15112.9000,E,19.44,0.0,061026,,,A*60

$GPGSV,3,1,09,02,45,120,24,05,30,210,29,12,60,045,34,15,20,300,39*76
$GPGSV,3,2,09,18,70,180,24,24,15,090,29,25,35,260,34,29,50,020,*7E
$GPGSV,3,3,09,31,10,150,*47
$BDGSV,2,1,06,06,40,100,22,09,25,220,26,14,55,330,30,19,65,010,34*6F
$BDGSV,2,2,06,21,30,170,22,22,12,250,*6C
$GNGGA,120153.000,3350.7898,S,15112.9000,E,1,08,1.2,25.3,M,22.1,M,,*61
$GNRMC,120153.000,A,3350.7898,S,15112.9000,E,19.44,0.0,061026,,,A*66

$GPGSV,3,1,09,02,45,120,24,05,30,210,29,12,60,045,34,15,20,300,39*76
$GPGSV,3,2,09,18,70,180,24,24,15,090,29,25,35,260,34,29,50,020,*7E
$GPGSV,3,3,09,31,10,150,*47
$BDGSV,2,1,06,06,40,100,22,09,25,220,26,14,55,330,30,19,65,010,34*6F
$BDGSV,2,2,06,21,30,170,22,22,12,250,*6C
$GNGGA,120154.000,3350.7844,S,15112.9000,E,1,08,1.2,25.3,M,22.1,M,,*67
$GNRMC,120154.000,A,3350.7844,S,15112.9000,E,19.44,0.0,061026,,,A*60

$GPGSV,3,1,09,02,45,120,24,05,30,210,29,12,60,045,34,15,20,300,39*76
$GPGSV,3,2,09,18,70,180,24,24,15,090,29,25,35,260,34,29,50,020,*7E
$GPGSV,3,3,09,31,10,150,*47
$BDGSV,2,1,06,06,40,100,22,09,25,220,26,14,55,330,30,19,65,010,34*6F
$BDGSV,2,2,06,21,30,170,22,22,12,250,*6C
$GNGGA,120155.000,3350.7790,S,15112.9000,E,1,08,1.2,25.3,M,22.1,M,,*60
$GNRMC,120155.000,A,3350.7790,S,15112.9000,E,19.44,0.0,061026,,,A*67

$GPGSV,3,1,09,02,45,120,24,05,30,210,29,12,60,045,34,15,20,300,39*76
$GPGSV,3,2,09,18,70,180,24,24,15,090,29,25,35,260,34,29,50,020,*7E
$GPGSV,3,3,09,31,10,150,*47
$BDGSV,2,1,06,06,40,100,22,09,25,220,26,14,55,330,30,19,65,010,34*6F
$BDGSV,2,2,06,21,30,170,22,22,12,250,*6C
$GNGGA,120156.000,3350.7736,S,15112.9000,E,1,08,1.2,25.3,M,22.1,M,,*6F
$GNRMC,120156.000,A,3350.7736,S,15112.9000,E,19.44,0.0,061026,,,A*68

$GPGSV,3,1,09,02,45,120,24,05,30,210,29,12,60,045,34,15,20,300,39*76
$GPGSV,3,2,09,18,70,180,24,24,15,090,29,25,35,260,34,29,50,020,*7E
$GPGSV,3,3,09,31,10,150,*47
$BDGSV,2,1,06,06,40,100,22,09,25,220,26,14,55,330,30,19,65,010,34*6F
$BDGSV,2,2,06,21,30,170,22,22,12,250,*6C
$GNGGA,120157.000,3350.7682,S,15112.9000,E,1,08,1.2,25.3,M,22.1,M,,*60
$GNRMC,120157.000,A,3350.7682,S,15112.9000,E,19.44,0.0,061026,,,A*67

$GPGSV,3,1,09,02,45,120,24,05,30,210,29,12,60,045,34,15,20,300,39*76
$GPGSV,3,2,09,18,70,180,24,24,15,090,29,25,35,260,34,29,50,020,*7E
$GPGSV,3,3,09,31,10,150,*47
$BDGSV,2,1,06,06,40,100,22,09,25,220,26,14,55,330,30,19,65,010,34*6F
$BDGSV,2,2,06,21,30,170,22,22,12,250,*6C
$GNGGA,120158.000,3350.7628,S,15112.9000,E,1,08,1.2,25.3,M,22.1,M,,*6F
$GNRMC,120158.000,A,3350.7628,S,15112.9000,E,19.44,0.0,061026,,,A*68

$GPGSV,3,1,09,02,45,120,24,05,30,210,29,12,60,045,34,15,20,300,39*76
$GPGSV,3,2,09,18,70,180,24,24,15,090,29,25,35,260,34,29,50,020,*7E
$GPGSV,3,3,09,31,10,150,*47
$BDGSV,2,1,06,06,40,100,22,09,25,220,26,14,55,330,30,19,65,010,34*6F
$BDGSV,2,2,06,21,30,170,22,22,12,250,*6C
$GNGGA,120159.000,3350.7574,S,15112.9000,E,1,08,1.2,25.3,M,22.1,M,,*64
$GNRMC,120159.000,A,3350.7574,S,15112.9000,E,19.44,0.0,061026,,,A*63

